{
"type": "FeatureCollection",
"name": "ferretti_ps_points",
"crs": { "type": "name", "properties": { "name": "urn:ogc:def:crs:OGC:1.3:CRS84" } },
"features": [
{ "type": "Feature", "properties": { "point_id": 25, "radar_y": 1433.5, "radar_x": 22119.5, "velocity_mm_yr": -62.0, "dem_error_m": 36.0, "constant_phase_rad": -1.1893185, "gamma": 0.9934322, "rmse_rad": 0.114803776, "gamma_initial": 0.556536, "rmse_initial_rad": 1.1162674, "amplitude_dispersion_index": 0.12596866, "mean_amplitude": 0.00017885656, "valid_pair_count": 32, "latitude": -20.065402106717748, "longitude": -44.177981326163845 }, "geometry": { "type": "Point", "coordinates": [ -44.177981326163845, -20.065402106717748 ] } },
{ "type": "Feature", "properties": { "point_id": 36, "radar_y": 1492.5, "radar_x": 21495.5, "velocity_mm_yr": -62.0, "dem_error_m": 40.0, "constant_phase_rad": -0.7392201, "gamma": 0.9895274, "rmse_rad": 0.14510763, "gamma_initial": 0.53165346, "rmse_initial_rad": 1.1171554, "amplitude_dispersion_index": 0.16019304, "mean_amplitude": 0.00016061729, "valid_pair_count": 32, "latitude": -20.077080360618694, "longitude": -44.161892364687866 }, "geometry": { "type": "Point", "coordinates": [ -44.161892364687866, -20.077080360618694 ] } },
{ "type": "Feature", "properties": { "point_id": 49, "radar_y": 1405.5, "radar_x": 21491.5, "velocity_mm_yr": -60.0, "dem_error_m": 36.0, "constant_phase_rad": -0.9553343, "gamma": 0.9677011, "rmse_rad": 0.25603223, "gamma_initial": 0.47704878, "rmse_initial_rad": 1.223332, "amplitude_dispersion_index": 0.16889001, "mean_amplitude": 0.00021117146, "valid_pair_count": 32, "latitude": -20.066320621069508, "longitude": -44.158288437317246 }, "geometry": { "type": "Point", "coordinates": [ -44.158288437317246, -20.066320621069508 ] } },
{ "type": "Feature", "properties": { "point_id": 51, "radar_y": 1544.5, "radar_x": 21280.5, "velocity_mm_yr": -60.0, "dem_error_m": 40.0, "constant_phase_rad": -0.86110264, "gamma": 0.99133533, "rmse_rad": 0.13187632, "gamma_initial": 0.49665752, "rmse_initial_rad": 1.1661218, "amplitude_dispersion_index": 0.15246536, "mean_amplitude": 0.00031897012, "valid_pair_count": 32, "latitude": -20.08482212444067, "longitude": -44.157516167166399 }, "geometry": { "type": "Point", "coordinates": [ -44.157516167166399, -20.08482212444067 ] } },
{ "type": "Feature", "properties": { "point_id": 55, "radar_y": 1496.5, "radar_x": 21295.5, "velocity_mm_yr": -58.0, "dem_error_m": 40.0, "constant_phase_rad": -1.1940973, "gamma": 0.99169916, "rmse_rad": 0.12906517, "gamma_initial": 0.49987507, "rmse_initial_rad": 1.15746, "amplitude_dispersion_index": 0.17269787, "mean_amplitude": 0.00030624378, "valid_pair_count": 32, "latitude": -20.07904860565818, "longitude": -44.155971626864705 }, "geometry": { "type": "Point", "coordinates": [ -44.155971626864705, -20.07904860565818 ] } },
{ "type": "Feature", "properties": { "point_id": 58, "radar_y": 1402.5, "radar_x": 21522.5, "velocity_mm_yr": -64.0, "dem_error_m": 40.0, "constant_phase_rad": -0.854067, "gamma": 0.9866735, "rmse_rad": 0.1637098, "gamma_initial": 0.5065237, "rmse_initial_rad": 1.177186, "amplitude_dispersion_index": 0.16357863, "mean_amplitude": 0.00016910466, "valid_pair_count": 32, "latitude": -20.065926972061611, "longitude": -44.159189419159901 }, "geometry": { "type": "Point", "coordinates": [ -44.159189419159901, -20.065926972061611 ] } },
{ "type": "Feature", "properties": { "point_id": 60, "radar_y": 1406.5, "radar_x": 21490.5, "velocity_mm_yr": -60.0, "dem_error_m": 32.0, "constant_phase_rad": -0.75510967, "gamma": 0.9606683, "rmse_rad": 0.28429142, "gamma_initial": 0.4718489, "rmse_initial_rad": 1.190794, "amplitude_dispersion_index": 0.16295098, "mean_amplitude": 0.00027915908, "valid_pair_count": 32, "latitude": -20.066714270077405, "longitude": -44.158417149009054 }, "geometry": { "type": "Point", "coordinates": [ -44.158417149009054, -20.066714270077405 ] } },
{ "type": "Feature", "properties": { "point_id": 70, "radar_y": 1452.5, "radar_x": 21341.5, "velocity_mm_yr": -58.0, "dem_error_m": 40.0, "constant_phase_rad": -0.6614617, "gamma": 0.98207843, "rmse_rad": 0.1903084, "gamma_initial": 0.5288061, "rmse_initial_rad": 1.1280574, "amplitude_dispersion_index": 0.16551217, "mean_amplitude": 0.00015617402, "valid_pair_count": 32, "latitude": -20.073143870539724, "longitude": -44.155585491789282 }, "geometry": { "type": "Point", "coordinates": [ -44.155585491789282, -20.073143870539724 ] } },
{ "type": "Feature", "properties": { "point_id": 72, "radar_y": 1492.5, "radar_x": 21499.5, "velocity_mm_yr": -60.0, "dem_error_m": 40.0, "constant_phase_rad": -0.5920441, "gamma": 0.98664135, "rmse_rad": 0.16406055, "gamma_initial": 0.5172327, "rmse_initial_rad": 1.1657145, "amplitude_dispersion_index": 0.17289028, "mean_amplitude": 0.00018321899, "valid_pair_count": 32, "latitude": -20.076817927946763, "longitude": -44.161892364687866 }, "geometry": { "type": "Point", "coordinates": [ -44.161892364687866, -20.076817927946763 ] } },
{ "type": "Feature", "properties": { "point_id": 77, "radar_y": 1451.5, "radar_x": 21342.5, "velocity_mm_yr": -60.0, "dem_error_m": 40.0, "constant_phase_rad": -0.64307415, "gamma": 0.9936751, "rmse_rad": 0.11267752, "gamma_initial": 0.50692964, "rmse_initial_rad": 1.1544377, "amplitude_dispersion_index": 0.17115304, "mean_amplitude": 0.0002308823, "valid_pair_count": 32, "latitude": -20.073143870539724, "longitude": -44.155585491789282 }, "geometry": { "type": "Point", "coordinates": [ -44.155585491789282, -20.073143870539724 ] } },
{ "type": "Feature", "properties": { "point_id": 78, "radar_y": 1492.5, "radar_x": 21490.5, "velocity_mm_yr": -62.0, "dem_error_m": 40.0, "constant_phase_rad": -0.8847223, "gamma": 0.98854494, "rmse_rad": 0.15176974, "gamma_initial": 0.5118441, "rmse_initial_rad": 1.1503305, "amplitude_dispersion_index": 0.17172363, "mean_amplitude": 0.0001721688, "valid_pair_count": 32, "latitude": -20.077080360618694, "longitude": -44.161763652996058 }, "geometry": { "type": "Point", "coordinates": [ -44.161763652996058, -20.077080360618694 ] } },
{ "type": "Feature", "properties": { "point_id": 79, "radar_y": 1434.5, "radar_x": 22119.5, "velocity_mm_yr": -62.0, "dem_error_m": 36.0, "constant_phase_rad": -1.1705222, "gamma": 0.9964764, "rmse_rad": 0.08401511, "gamma_initial": 0.5251304, "rmse_initial_rad": 1.1887012, "amplitude_dispersion_index": 0.16623512, "mean_amplitude": 0.00018862613, "valid_pair_count": 32, "latitude": -20.065533323053714, "longitude": -44.177981326163845 }, "geometry": { "type": "Point", "coordinates": [ -44.177981326163845, -20.065533323053714 ] } },
{ "type": "Feature", "properties": { "point_id": 86, "radar_y": 1448.5, "radar_x": 21398.5, "velocity_mm_yr": -60.0, "dem_error_m": 36.0, "constant_phase_rad": -1.3403367, "gamma": 0.99061596, "rmse_rad": 0.13728343, "gamma_initial": 0.5287036, "rmse_initial_rad": 1.1403354, "amplitude_dispersion_index": 0.15821503, "mean_amplitude": 0.00026863083, "valid_pair_count": 32, "latitude": -20.07235657252393, "longitude": -44.157130032090976 }, "geometry": { "type": "Point", "coordinates": [ -44.157130032090976, -20.07235657252393 ] } },
{ "type": "Feature", "properties": { "point_id": 87, "radar_y": 1528.5, "radar_x": 21180.5, "velocity_mm_yr": -62.0, "dem_error_m": 40.0, "constant_phase_rad": -1.0782862, "gamma": 0.9950991, "rmse_rad": 0.0991742, "gamma_initial": 0.5010594, "rmse_initial_rad": 1.1852432, "amplitude_dispersion_index": 0.17583664, "mean_amplitude": 0.00029401673, "valid_pair_count": 32, "latitude": -20.083641177416979, "longitude": -44.153654816412164 }, "geometry": { "type": "Point", "coordinates": [ -44.153654816412164, -20.083641177416979 ] } },
{ "type": "Feature", "properties": { "point_id": 92, "radar_y": 1528.5, "radar_x": 21179.5, "velocity_mm_yr": -62.0, "dem_error_m": 40.0, "constant_phase_rad": -0.90332365, "gamma": 0.99385124, "rmse_rad": 0.11107637, "gamma_initial": 0.49031687, "rmse_initial_rad": 1.1872602, "amplitude_dispersion_index": 0.1650057, "mean_amplitude": 0.00031562397, "valid_pair_count": 32, "latitude": -20.083641177416979, "longitude": -44.153654816412164 }, "geometry": { "type": "Point", "coordinates": [ -44.153654816412164, -20.083641177416979 ] } },
{ "type": "Feature", "properties": { "point_id": 101, "radar_y": 1449.5, "radar_x": 21398.5, "velocity_mm_yr": -60.0, "dem_error_m": 36.0, "constant_phase_rad": -1.3450022, "gamma": 0.98830754, "rmse_rad": 0.15364271, "gamma_initial": 0.5088434, "rmse_initial_rad": 1.1563727, "amplitude_dispersion_index": 0.16259168, "mean_amplitude": 0.0002030594, "valid_pair_count": 32, "latitude": -20.07235657252393, "longitude": -44.157130032090976 }, "geometry": { "type": "Point", "coordinates": [ -44.157130032090976, -20.07235657252393 ] } },
{ "type": "Feature", "properties": { "point_id": 102, "radar_y": 1544.5, "radar_x": 21279.5, "velocity_mm_yr": -60.0, "dem_error_m": 36.0, "constant_phase_rad": -0.8457722, "gamma": 0.9933006, "rmse_rad": 0.11592739, "gamma_initial": 0.49333197, "rmse_initial_rad": 1.1662636, "amplitude_dispersion_index": 0.16052273, "mean_amplitude": 0.0002825142, "valid_pair_count": 32, "latitude": -20.08482212444067, "longitude": -44.157516167166399 }, "geometry": { "type": "Point", "coordinates": [ -44.157516167166399, -20.08482212444067 ] } },
{ "type": "Feature", "properties": { "point_id": 106, "radar_y": 1405.5, "radar_x": 21490.5, "velocity_mm_yr": -60.0, "dem_error_m": 40.0, "constant_phase_rad": -0.881573, "gamma": 0.96672195, "rmse_rad": 0.260466, "gamma_initial": 0.47575873, "rmse_initial_rad": 1.2085038, "amplitude_dispersion_index": 0.17711703, "mean_amplitude": 0.00022746764, "valid_pair_count": 32, "latitude": -20.066320621069508, "longitude": -44.158288437317246 }, "geometry": { "type": "Point", "coordinates": [ -44.158288437317246, -20.066320621069508 ] } },
{ "type": "Feature", "properties": { "point_id": 107, "radar_y": 1538.5, "radar_x": 21046.5, "velocity_mm_yr": -62.0, "dem_error_m": 32.0, "constant_phase_rad": -1.140672, "gamma": 0.9972439, "rmse_rad": 0.07430704, "gamma_initial": 0.5015593, "rmse_initial_rad": 1.2020931, "amplitude_dispersion_index": 0.17113066, "mean_amplitude": 0.00025208955, "valid_pair_count": 32, "latitude": -20.085871855128396, "longitude": -44.150050889041545 }, "geometry": { "type": "Point", "coordinates": [ -44.150050889041545, -20.085871855128396 ] } },
{ "type": "Feature", "properties": { "point_id": 108, "radar_y": 1512.5, "radar_x": 19168.5, "velocity_mm_yr": -26.0, "dem_error_m": -4.0, "constant_phase_rad": 1.2266295, "gamma": 0.9112881, "rmse_rad": 0.43588206, "gamma_initial": 0.4476484, "rmse_initial_rad": 1.1878523, "amplitude_dispersion_index": 0.17609175, "mean_amplitude": 0.00035253962, "valid_pair_count": 32, "latitude": -20.095581863989857, "longitude": -44.095348420023214 }, "geometry": { "type": "Point", "coordinates": [ -44.095348420023214, -20.095581863989857 ] } },
{ "type": "Feature", "properties": { "point_id": 109, "radar_y": 1416.5, "radar_x": 21469.5, "velocity_mm_yr": -60.0, "dem_error_m": 40.0, "constant_phase_rad": -0.66835266, "gamma": 0.92887574, "rmse_rad": 0.38277623, "gamma_initial": 0.46513954, "rmse_initial_rad": 1.2518245, "amplitude_dispersion_index": 0.18616179, "mean_amplitude": 0.00031713524, "valid_pair_count": 32, "latitude": -20.068026433437062, "longitude": -44.158159725625438 }, "geometry": { "type": "Point", "coordinates": [ -44.158159725625438, -20.068026433437062 ] } },
{ "type": "Feature", "properties": { "point_id": 111, "radar_y": 1451.5, "radar_x": 21341.5, "velocity_mm_yr": -58.0, "dem_error_m": 40.0, "constant_phase_rad": -0.57258654, "gamma": 0.9956475, "rmse_rad": 0.093374655, "gamma_initial": 0.5022633, "rmse_initial_rad": 1.1689243, "amplitude_dispersion_index": 0.16038811, "mean_amplitude": 0.00014709214, "valid_pair_count": 32, "latitude": -20.073143870539724, "longitude": -44.155585491789282 }, "geometry": { "type": "Point", "coordinates": [ -44.155585491789282, -20.073143870539724 ] } },
{ "type": "Feature", "properties": { "point_id": 116, "radar_y": 1496.5, "radar_x": 21296.5, "velocity_mm_yr": -60.0, "dem_error_m": 40.0, "constant_phase_rad": -1.1135488, "gamma": 0.98307085, "rmse_rad": 0.18469657, "gamma_initial": 0.49546644, "rmse_initial_rad": 1.1674052, "amplitude_dispersion_index": 0.19299243, "mean_amplitude": 0.00018906631, "valid_pair_count": 32, "latitude": -20.07904860565818, "longitude": -44.155971626864705 }, "geometry": { "type": "Point", "coordinates": [ -44.155971626864705, -20.07904860565818 ] } },
{ "type": "Feature", "properties": { "point_id": 120, "radar_y": 1438.5, "radar_x": 21321.5, "velocity_mm_yr": -60.0, "dem_error_m": 40.0, "constant_phase_rad": -0.6485382, "gamma": 0.98103976, "rmse_rad": 0.19561706, "gamma_initial": 0.49714553, "rmse_initial_rad": 1.2008913, "amplitude_dispersion_index": 0.18038051, "mean_amplitude": 0.0002138021, "valid_pair_count": 32, "latitude": -20.071700490844101, "longitude": -44.154427086563011 }, "geometry": { "type": "Point", "coordinates": [ -44.154427086563011, -20.071700490844101 ] } },
{ "type": "Feature", "properties": { "point_id": 122, "radar_y": 1433.5, "radar_x": 22120.5, "velocity_mm_yr": -62.0, "dem_error_m": 36.0, "constant_phase_rad": -1.1426471, "gamma": 0.9920553, "rmse_rad": 0.12631515, "gamma_initial": 0.5294342, "rmse_initial_rad": 1.1983408, "amplitude_dispersion_index": 0.16516092, "mean_amplitude": 0.00013893403, "valid_pair_count": 32, "latitude": -20.065402106717748, "longitude": -44.177981326163845 }, "geometry": { "type": "Point", "coordinates": [ -44.177981326163845, -20.065402106717748 ] } },
{ "type": "Feature", "properties": { "point_id": 124, "radar_y": 1464.5, "radar_x": 21754.5, "velocity_mm_yr": -58.0, "dem_error_m": 40.0, "constant_phase_rad": -0.64786446, "gamma": 0.9844347, "rmse_rad": 0.17712511, "gamma_initial": 0.49304536, "rmse_initial_rad": 1.2353821, "amplitude_dispersion_index": 0.16961817, "mean_amplitude": 0.00019569618, "valid_pair_count": 32, "latitude": -20.071831707180067, "longitude": -44.167684390819218 }, "geometry": { "type": "Point", "coordinates": [ -44.167684390819218, -20.071831707180067 ] } },
{ "type": "Feature", "properties": { "point_id": 125, "radar_y": 1565.5, "radar_x": 19123.5, "velocity_mm_yr": -30.0, "dem_error_m": -28.0, "constant_phase_rad": -2.9458895, "gamma": 0.9221537, "rmse_rad": 0.4055343, "gamma_initial": 0.46127424, "rmse_initial_rad": 1.2247374, "amplitude_dispersion_index": 0.18537693, "mean_amplitude": 0.00026284982, "valid_pair_count": 32, "latitude": -20.103192411475867, "longitude": -44.093160321262481 }, "geometry": { "type": "Point", "coordinates": [ -44.093160321262481, -20.103192411475867 ] } },
{ "type": "Feature", "properties": { "point_id": 135, "radar_y": 1545.5, "radar_x": 21280.5, "velocity_mm_yr": -60.0, "dem_error_m": 40.0, "constant_phase_rad": -0.786487, "gamma": 0.9926844, "rmse_rad": 0.12122337, "gamma_initial": 0.49760127, "rmse_initial_rad": 1.1549345, "amplitude_dispersion_index": 0.17335667, "mean_amplitude": 0.00032299763, "valid_pair_count": 32, "latitude": -20.08482212444067, "longitude": -44.157516167166399 }, "geometry": { "type": "Point", "coordinates": [ -44.157516167166399, -20.08482212444067 ] } },
{ "type": "Feature", "properties": { "point_id": 166, "radar_y": 1462.5, "radar_x": 21556.5, "velocity_mm_yr": -60.0, "dem_error_m": 40.0, "constant_phase_rad": -0.9016169, "gamma": 0.9948693, "rmse_rad": 0.10141454, "gamma_initial": 0.5074645, "rmse_initial_rad": 1.2209468, "amplitude_dispersion_index": 0.17611928, "mean_amplitude": 0.0002781563, "valid_pair_count": 32, "latitude": -20.073012654203758, "longitude": -44.162278499763289 }, "geometry": { "type": "Point", "coordinates": [ -44.162278499763289, -20.073012654203758 ] } },
{ "type": "Feature", "properties": { "point_id": 169, "radar_y": 1402.5, "radar_x": 21520.5, "velocity_mm_yr": -62.0, "dem_error_m": 36.0, "constant_phase_rad": -0.62456316, "gamma": 0.96458185, "rmse_rad": 0.26856968, "gamma_initial": 0.49818575, "rmse_initial_rad": 1.1829157, "amplitude_dispersion_index": 0.1896261, "mean_amplitude": 7.7959645e-05, "valid_pair_count": 32, "latitude": -20.065926972061611, "longitude": -44.159060707468093 }, "geometry": { "type": "Point", "coordinates": [ -44.159060707468093, -20.065926972061611 ] } },
{ "type": "Feature", "properties": { "point_id": 183, "radar_y": 1494.5, "radar_x": 21494.5, "velocity_mm_yr": -60.0, "dem_error_m": 40.0, "constant_phase_rad": -1.0646707, "gamma": 0.98572654, "rmse_rad": 0.16954353, "gamma_initial": 0.52156216, "rmse_initial_rad": 1.1177391, "amplitude_dispersion_index": 0.20472775, "mean_amplitude": 0.00016644613, "valid_pair_count": 32, "latitude": -20.07721157695466, "longitude": -44.161892364687866 }, "geometry": { "type": "Point", "coordinates": [ -44.161892364687866, -20.07721157695466 ] } },
{ "type": "Feature", "properties": { "point_id": 184, "radar_y": 1519.5, "radar_x": 21047.5, "velocity_mm_yr": -62.0, "dem_error_m": 24.0, "constant_phase_rad": -1.4411771, "gamma": 0.92275953, "rmse_rad": 0.39962417, "gamma_initial": 0.4304929, "rmse_initial_rad": 1.2541069, "amplitude_dispersion_index": 0.18632154, "mean_amplitude": 0.00019650752, "valid_pair_count": 32, "latitude": -20.083509961081013, "longitude": -44.14914990719889 }, "geometry": { "type": "Point", "coordinates": [ -44.14914990719889, -20.083509961081013 ] } },
{ "type": "Feature", "properties": { "point_id": 192, "radar_y": 1451.5, "radar_x": 21344.5, "velocity_mm_yr": -58.0, "dem_error_m": 36.0, "constant_phase_rad": -0.805019, "gamma": 0.96856844, "rmse_rad": 0.2538515, "gamma_initial": 0.4804122, "rmse_initial_rad": 1.2218826, "amplitude_dispersion_index": 0.20102504, "mean_amplitude": 0.00022607588, "valid_pair_count": 32, "latitude": -20.073143870539724, "longitude": -44.155585491789282 }, "geometry": { "type": "Point", "coordinates": [ -44.155585491789282, -20.073143870539724 ] } },
{ "type": "Feature", "properties": { "point_id": 208, "radar_y": 1519.5, "radar_x": 19181.5, "velocity_mm_yr": -16.0, "dem_error_m": -28.0, "constant_phase_rad": 1.0877246, "gamma": 0.8838611, "rmse_rad": 0.4968438, "gamma_initial": 0.44510302, "rmse_initial_rad": 1.2725781, "amplitude_dispersion_index": 0.19951294, "mean_amplitude": 0.00028506762, "valid_pair_count": 32, "latitude": -20.096631594677582, "longitude": -44.095477131715022 }, "geometry": { "type": "Point", "coordinates": [ -44.095477131715022, -20.096631594677582 ] } },
{ "type": "Feature", "properties": { "point_id": 209, "radar_y": 1578.5, "radar_x": 19179.5, "velocity_mm_yr": -30.0, "dem_error_m": -32.0, "constant_phase_rad": -2.974464, "gamma": 0.99192834, "rmse_rad": 0.12720996, "gamma_initial": 0.52759224, "rmse_initial_rad": 1.1038474, "amplitude_dispersion_index": 0.20155519, "mean_amplitude": 0.00028709535, "valid_pair_count": 32, "latitude": -20.104242142163592, "longitude": -44.095734555098637 }, "geometry": { "type": "Point", "coordinates": [ -44.095734555098637, -20.104242142163592 ] } },
{ "type": "Feature", "properties": { "point_id": 211, "radar_y": 1527.5, "radar_x": 21007.5, "velocity_mm_yr": -62.0, "dem_error_m": 36.0, "constant_phase_rad": -1.0689526, "gamma": 0.97233886, "rmse_rad": 0.23678724, "gamma_initial": 0.48143598, "rmse_initial_rad": 1.1879271, "amplitude_dispersion_index": 0.1985304, "mean_amplitude": 0.00017741922, "valid_pair_count": 32, "latitude": -20.08482212444067, "longitude": -44.148248925356235 }, "geometry": { "type": "Point", "coordinates": [ -44.148248925356235, -20.08482212444067 ] } },
{ "type": "Feature", "properties": { "point_id": 227, "radar_y": 1524.5, "radar_x": 21119.5, "velocity_mm_yr": -62.0, "dem_error_m": 40.0, "constant_phase_rad": -1.0154637, "gamma": 0.9442581, "rmse_rad": 0.34013498, "gamma_initial": 0.4769284, "rmse_initial_rad": 1.2144927, "amplitude_dispersion_index": 0.17343715, "mean_amplitude": 0.00015305412, "valid_pair_count": 32, "latitude": -20.083772393752945, "longitude": -44.151724141035047 }, "geometry": { "type": "Point", "coordinates": [ -44.151724141035047, -20.083772393752945 ] } },
{ "type": "Feature", "properties": { "point_id": 230, "radar_y": 1495.5, "radar_x": 21295.5, "velocity_mm_yr": -58.0, "dem_error_m": 40.0, "constant_phase_rad": -1.0946919, "gamma": 0.99377, "rmse_rad": 0.11183355, "gamma_initial": 0.51774967, "rmse_initial_rad": 1.1371045, "amplitude_dispersion_index": 0.20406978, "mean_amplitude": 0.00019458176, "valid_pair_count": 32, "latitude": -20.078654956650283, "longitude": -44.155842915172897 }, "geometry": { "type": "Point", "coordinates": [ -44.155842915172897, -20.078654956650283 ] } },
{ "type": "Feature", "properties": { "point_id": 234, "radar_y": 1509.5, "radar_x": 19157.5, "velocity_mm_yr": -30.0, "dem_error_m": -20.0, "constant_phase_rad": 1.001435, "gamma": 0.933926, "rmse_rad": 0.3708147, "gamma_initial": 0.46253374, "rmse_initial_rad": 1.1834711, "amplitude_dispersion_index": 0.21000704, "mean_amplitude": 0.00035274707, "valid_pair_count": 32, "latitude": -20.095319431317925, "longitude": -44.09496228494779 }, "geometry": { "type": "Point", "coordinates": [ -44.09496228494779, -20.095319431317925 ] } },
{ "type": "Feature", "properties": { "point_id": 235, "radar_y": 1479.5, "radar_x": 21715.5, "velocity_mm_yr": -60.0, "dem_error_m": 40.0, "constant_phase_rad": -0.82303333, "gamma": 0.94888365, "rmse_rad": 0.32600248, "gamma_initial": 0.4817549, "rmse_initial_rad": 1.2368636, "amplitude_dispersion_index": 0.19429739, "mean_amplitude": 0.00019437468, "valid_pair_count": 32, "latitude": -20.073931168555518, "longitude": -44.167298255743795 }, "geometry": { "type": "Point", "coordinates": [ -44.167298255743795, -20.073931168555518 ] } },
{ "type": "Feature", "properties": { "point_id": 250, "radar_y": 1442.5, "radar_x": 21362.5, "velocity_mm_yr": -58.0, "dem_error_m": 36.0, "constant_phase_rad": -0.7615311, "gamma": 0.9687802, "rmse_rad": 0.25208294, "gamma_initial": 0.5310266, "rmse_initial_rad": 1.1274483, "amplitude_dispersion_index": 0.20764968, "mean_amplitude": 0.00012654542, "valid_pair_count": 32, "latitude": -20.071831707180067, "longitude": -44.155842915172897 }, "geometry": { "type": "Point", "coordinates": [ -44.155842915172897, -20.071831707180067 ] } },
{ "type": "Feature", "properties": { "point_id": 262, "radar_y": 1452.5, "radar_x": 21342.5, "velocity_mm_yr": -60.0, "dem_error_m": 40.0, "constant_phase_rad": -0.71625984, "gamma": 0.9888833, "rmse_rad": 0.14947388, "gamma_initial": 0.52322173, "rmse_initial_rad": 1.1239879, "amplitude_dispersion_index": 0.214402, "mean_amplitude": 0.00019721958, "valid_pair_count": 32, "latitude": -20.073143870539724, "longitude": -44.155585491789282 }, "geometry": { "type": "Point", "coordinates": [ -44.155585491789282, -20.073143870539724 ] } },
{ "type": "Feature", "properties": { "point_id": 279, "radar_y": 1529.5, "radar_x": 21180.5, "velocity_mm_yr": -62.0, "dem_error_m": 40.0, "constant_phase_rad": -1.1970136, "gamma": 0.9593733, "rmse_rad": 0.28800502, "gamma_initial": 0.4985763, "rmse_initial_rad": 1.1501025, "amplitude_dispersion_index": 0.1987492, "mean_amplitude": 0.00014123438, "valid_pair_count": 32, "latitude": -20.08390361008891, "longitude": -44.153783528103972 }, "geometry": { "type": "Point", "coordinates": [ -44.153783528103972, -20.08390361008891 ] } },
{ "type": "Feature", "properties": { "point_id": 292, "radar_y": 1488.5, "radar_x": 19116.5, "velocity_mm_yr": -62.0, "dem_error_m": -40.0, "constant_phase_rad": 1.5885825, "gamma": 0.94386774, "rmse_rad": 0.3385104, "gamma_initial": 0.46121392, "rmse_initial_rad": 1.2033653, "amplitude_dispersion_index": 0.2108965, "mean_amplitude": 0.00015072811, "valid_pair_count": 32, "latitude": -20.093088753606509, "longitude": -44.092774186187057 }, "geometry": { "type": "Point", "coordinates": [ -44.092774186187057, -20.093088753606509 ] } },
{ "type": "Feature", "properties": { "point_id": 294, "radar_y": 1538.5, "radar_x": 21047.5, "velocity_mm_yr": -62.0, "dem_error_m": 40.0, "constant_phase_rad": -0.7957879, "gamma": 0.99573416, "rmse_rad": 0.09243322, "gamma_initial": 0.5064224, "rmse_initial_rad": 1.192133, "amplitude_dispersion_index": 0.20145847, "mean_amplitude": 0.00022659368, "valid_pair_count": 32, "latitude": -20.085871855128396, "longitude": -44.150050889041545 }, "geometry": { "type": "Point", "coordinates": [ -44.150050889041545, -20.085871855128396 ] } },
{ "type": "Feature", "properties": { "point_id": 297, "radar_y": 1453.5, "radar_x": 21194.5, "velocity_mm_yr": -62.0, "dem_error_m": 40.0, "constant_phase_rad": -1.3247905, "gamma": 0.91531914, "rmse_rad": 0.42315394, "gamma_initial": 0.4297622, "rmse_initial_rad": 1.2737541, "amplitude_dispersion_index": 0.18903947, "mean_amplitude": 0.000473964, "valid_pair_count": 32, "latitude": -20.074456033899381, "longitude": -44.150951870884199 }, "geometry": { "type": "Point", "coordinates": [ -44.150951870884199, -20.074456033899381 ] } },
{ "type": "Feature", "properties": { "point_id": 298, "radar_y": 1576.5, "radar_x": 19179.5, "velocity_mm_yr": -32.0, "dem_error_m": -32.0, "constant_phase_rad": -2.9793055, "gamma": 0.9713802, "rmse_rad": 0.24072301, "gamma_initial": 0.4746189, "rmse_initial_rad": 1.1825845, "amplitude_dispersion_index": 0.20770803, "mean_amplitude": 0.00019924583, "valid_pair_count": 32, "latitude": -20.104110925827626, "longitude": -44.095734555098637 }, "geometry": { "type": "Point", "coordinates": [ -44.095734555098637, -20.104110925827626 ] } },
{ "type": "Feature", "properties": { "point_id": 302, "radar_y": 1453.5, "radar_x": 21193.5, "velocity_mm_yr": -64.0, "dem_error_m": 40.0, "constant_phase_rad": -1.4182757, "gamma": 0.9010573, "rmse_rad": 0.46399283, "gamma_initial": 0.43080992, "rmse_initial_rad": 1.2822614, "amplitude_dispersion_index": 0.19030711, "mean_amplitude": 0.00030566705, "valid_pair_count": 32, "latitude": -20.074456033899381, "longitude": -44.150951870884199 }, "geometry": { "type": "Point", "coordinates": [ -44.150951870884199, -20.074456033899381 ] } },
{ "type": "Feature", "properties": { "point_id": 307, "radar_y": 1452.5, "radar_x": 21344.5, "velocity_mm_yr": -60.0, "dem_error_m": 36.0, "constant_phase_rad": -0.78297096, "gamma": 0.94426954, "rmse_rad": 0.33953795, "gamma_initial": 0.45585144, "rmse_initial_rad": 1.2720046, "amplitude_dispersion_index": 0.21462357, "mean_amplitude": 0.0001921205, "valid_pair_count": 32, "latitude": -20.073143870539724, "longitude": -44.155585491789282 }, "geometry": { "type": "Point", "coordinates": [ -44.155585491789282, -20.073143870539724 ] } },
{ "type": "Feature", "properties": { "point_id": 322, "radar_y": 1404.5, "radar_x": 21599.5, "velocity_mm_yr": -58.0, "dem_error_m": 32.0, "constant_phase_rad": -1.0972258, "gamma": 0.9559043, "rmse_rad": 0.30019727, "gamma_initial": 0.45464945, "rmse_initial_rad": 1.2529057, "amplitude_dispersion_index": 0.20587029, "mean_amplitude": 0.00021429466, "valid_pair_count": 32, "latitude": -20.065533323053714, "longitude": -44.161506229612442 }, "geometry": { "type": "Point", "coordinates": [ -44.161506229612442, -20.065533323053714 ] } },
{ "type": "Feature", "properties": { "point_id": 326, "radar_y": 1406.5, "radar_x": 21491.5, "velocity_mm_yr": -60.0, "dem_error_m": 28.0, "constant_phase_rad": -0.92808646, "gamma": 0.92922074, "rmse_rad": 0.38275728, "gamma_initial": 0.4532038, "rmse_initial_rad": 1.2498122, "amplitude_dispersion_index": 0.21405818, "mean_amplitude": 0.00021434038, "valid_pair_count": 32, "latitude": -20.066714270077405, "longitude": -44.158417149009054 }, "geometry": { "type": "Point", "coordinates": [ -44.158417149009054, -20.066714270077405 ] } },
{ "type": "Feature", "properties": { "point_id": 334, "radar_y": 1527.5, "radar_x": 21008.5, "velocity_mm_yr": -64.0, "dem_error_m": 36.0, "constant_phase_rad": -1.4254965, "gamma": 0.9591197, "rmse_rad": 0.28854805, "gamma_initial": 0.48393053, "rmse_initial_rad": 1.2369645, "amplitude_dispersion_index": 0.20624818, "mean_amplitude": 0.00011566065, "valid_pair_count": 32, "latitude": -20.08482212444067, "longitude": -44.148248925356235 }, "geometry": { "type": "Point", "coordinates": [ -44.148248925356235, -20.08482212444067 ] } },
{ "type": "Feature", "properties": { "point_id": 341, "radar_y": 1496.5, "radar_x": 19124.5, "velocity_mm_yr": -30.0, "dem_error_m": 0.0, "constant_phase_rad": 1.798323, "gamma": 0.9271192, "rmse_rad": 0.38806647, "gamma_initial": 0.4505817, "rmse_initial_rad": 1.2389922, "amplitude_dispersion_index": 0.20293237, "mean_amplitude": 0.00020528595, "valid_pair_count": 32, "latitude": -20.094138484294234, "longitude": -44.093417744646096 }, "geometry": { "type": "Point", "coordinates": [ -44.093417744646096, -20.094138484294234 ] } },
{ "type": "Feature", "properties": { "point_id": 342, "radar_y": 1577.5, "radar_x": 19180.5, "velocity_mm_yr": -28.0, "dem_error_m": -32.0, "constant_phase_rad": -2.2519917, "gamma": 0.967172, "rmse_rad": 0.2586741, "gamma_initial": 0.47880304, "rmse_initial_rad": 1.1866803, "amplitude_dispersion_index": 0.21095438, "mean_amplitude": 0.00017666417, "valid_pair_count": 32, "latitude": -20.104110925827626, "longitude": -44.095734555098637 }, "geometry": { "type": "Point", "coordinates": [ -44.095734555098637, -20.104110925827626 ] } },
{ "type": "Feature", "properties": { "point_id": 343, "radar_y": 1503.5, "radar_x": 19150.5, "velocity_mm_yr": -30.0, "dem_error_m": -12.0, "constant_phase_rad": 1.3522811, "gamma": 0.9320163, "rmse_rad": 0.37439924, "gamma_initial": 0.43349117, "rmse_initial_rad": 1.2139511, "amplitude_dispersion_index": 0.20520887, "mean_amplitude": 0.00024680147, "valid_pair_count": 32, "latitude": -20.094663349638097, "longitude": -44.094704861564175 }, "geometry": { "type": "Point", "coordinates": [ -44.094704861564175, -20.094663349638097 ] } },
{ "type": "Feature", "properties": { "point_id": 350, "radar_y": 1436.5, "radar_x": 21338.5, "velocity_mm_yr": -60.0, "dem_error_m": 32.0, "constant_phase_rad": -1.3199723, "gamma": 0.9771433, "rmse_rad": 0.21485306, "gamma_initial": 0.49624068, "rmse_initial_rad": 1.173543, "amplitude_dispersion_index": 0.2082436, "mean_amplitude": 0.000101412086, "valid_pair_count": 32, "latitude": -20.07143805817217, "longitude": -44.154941933330242 }, "geometry": { "type": "Point", "coordinates": [ -44.154941933330242, -20.07143805817217 ] } },
{ "type": "Feature", "properties": { "point_id": 351, "radar_y": 1527.5, "radar_x": 21179.5, "velocity_mm_yr": -62.0, "dem_error_m": 40.0, "constant_phase_rad": -0.8978289, "gamma": 0.99176425, "rmse_rad": 0.12863493, "gamma_initial": 0.5016725, "rmse_initial_rad": 1.1839914, "amplitude_dispersion_index": 0.1975397, "mean_amplitude": 0.00024892512, "valid_pair_count": 32, "latitude": -20.083509961081013, "longitude": -44.153654816412164 }, "geometry": { "type": "Point", "coordinates": [ -44.153654816412164, -20.083509961081013 ] } },
{ "type": "Feature", "properties": { "point_id": 354, "radar_y": 1559.5, "radar_x": 19176.5, "velocity_mm_yr": -34.0, "dem_error_m": -40.0, "constant_phase_rad": 2.996298, "gamma": 0.85031635, "rmse_rad": 0.56276417, "gamma_initial": 0.4404838, "rmse_initial_rad": 1.2829498, "amplitude_dispersion_index": 0.19688289, "mean_amplitude": 0.0001462547, "valid_pair_count": 32, "latitude": -20.10188024811621, "longitude": -44.095219708331406 }, "geometry": { "type": "Point", "coordinates": [ -44.095219708331406, -20.10188024811621 ] } },
{ "type": "Feature", "properties": { "point_id": 355, "radar_y": 1483.5, "radar_x": 21021.5, "velocity_mm_yr": -62.0, "dem_error_m": 40.0, "constant_phase_rad": -1.4813702, "gamma": 0.9097379, "rmse_rad": 0.4362786, "gamma_initial": 0.4555986, "rmse_initial_rad": 1.219738, "amplitude_dispersion_index": 0.20008743, "mean_amplitude": 0.0001692326, "valid_pair_count": 32, "latitude": -20.079442254666077, "longitude": -44.147219231821772 }, "geometry": { "type": "Point", "coordinates": [ -44.147219231821772, -20.079442254666077 ] } },
{ "type": "Feature", "properties": { "point_id": 358, "radar_y": 1491.5, "radar_x": 21499.5, "velocity_mm_yr": -60.0, "dem_error_m": 40.0, "constant_phase_rad": -0.5703274, "gamma": 0.97885114, "rmse_rad": 0.2066355, "gamma_initial": 0.51148266, "rmse_initial_rad": 1.1907952, "amplitude_dispersion_index": 0.2046915, "mean_amplitude": 0.00012147129, "valid_pair_count": 32, "latitude": -20.076817927946763, "longitude": -44.161892364687866 }, "geometry": { "type": "Point", "coordinates": [ -44.161892364687866, -20.076817927946763 ] } },
{ "type": "Feature", "properties": { "point_id": 365, "radar_y": 1513.5, "radar_x": 19159.5, "velocity_mm_yr": -16.0, "dem_error_m": -16.0, "constant_phase_rad": 1.1569562, "gamma": 0.87048537, "rmse_rad": 0.5251366, "gamma_initial": 0.3764757, "rmse_initial_rad": 1.2992722, "amplitude_dispersion_index": 0.2145026, "mean_amplitude": 0.00022786683, "valid_pair_count": 32, "latitude": -20.095975512997754, "longitude": -44.094833573255983 }, "geometry": { "type": "Point", "coordinates": [ -44.094833573255983, -20.095975512997754 ] } },
{ "type": "Feature", "properties": { "point_id": 371, "radar_y": 1404.5, "radar_x": 21600.5, "velocity_mm_yr": -58.0, "dem_error_m": 36.0, "constant_phase_rad": -1.0221775, "gamma": 0.96249855, "rmse_rad": 0.27732918, "gamma_initial": 0.4493261, "rmse_initial_rad": 1.2821273, "amplitude_dispersion_index": 0.21806788, "mean_amplitude": 0.00021408769, "valid_pair_count": 32, "latitude": -20.065533323053714, "longitude": -44.161506229612442 }, "geometry": { "type": "Point", "coordinates": [ -44.161506229612442, -20.065533323053714 ] } },
{ "type": "Feature", "properties": { "point_id": 372, "radar_y": 1448.5, "radar_x": 21381.5, "velocity_mm_yr": -60.0, "dem_error_m": 40.0, "constant_phase_rad": -1.3635831, "gamma": 0.98747224, "rmse_rad": 0.15874347, "gamma_initial": 0.54521346, "rmse_initial_rad": 1.1303167, "amplitude_dispersion_index": 0.22571152, "mean_amplitude": 0.00016332245, "valid_pair_count": 32, "latitude": -20.07235657252393, "longitude": -44.156615185323744 }, "geometry": { "type": "Point", "coordinates": [ -44.156615185323744, -20.07235657252393 ] } },
{ "type": "Feature", "properties": { "point_id": 376, "radar_y": 1434.5, "radar_x": 22118.5, "velocity_mm_yr": -64.0, "dem_error_m": 40.0, "constant_phase_rad": -0.9053204, "gamma": 0.98931545, "rmse_rad": 0.14667082, "gamma_initial": 0.5114379, "rmse_initial_rad": 1.2402027, "amplitude_dispersion_index": 0.2060611, "mean_amplitude": 0.0001226925, "valid_pair_count": 32, "latitude": -20.065533323053714, "longitude": -44.177981326163845 }, "geometry": { "type": "Point", "coordinates": [ -44.177981326163845, -20.065533323053714 ] } },
{ "type": "Feature", "properties": { "point_id": 428, "radar_y": 1539.5, "radar_x": 19169.5, "velocity_mm_yr": -34.0, "dem_error_m": -20.0, "constant_phase_rad": 2.4314182, "gamma": 0.8599175, "rmse_rad": 0.5520587, "gamma_initial": 0.41325366, "rmse_initial_rad": 1.3056604, "amplitude_dispersion_index": 0.21099286, "mean_amplitude": 0.00021701, "valid_pair_count": 32, "latitude": -20.099255921396896, "longitude": -44.095348420023214 }, "geometry": { "type": "Point", "coordinates": [ -44.095348420023214, -20.099255921396896 ] } },
{ "type": "Feature", "properties": { "point_id": 445, "radar_y": 1530.5, "radar_x": 21065.5, "velocity_mm_yr": -62.0, "dem_error_m": 40.0, "constant_phase_rad": -0.8477194, "gamma": 0.9537714, "rmse_rad": 0.31028697, "gamma_initial": 0.44911715, "rmse_initial_rad": 1.2765936, "amplitude_dispersion_index": 0.19998807, "mean_amplitude": 0.00011961138, "valid_pair_count": 32, "latitude": -20.084690908104704, "longitude": -44.15030831242516 }, "geometry": { "type": "Point", "coordinates": [ -44.15030831242516, -20.084690908104704 ] } },
{ "type": "Feature", "properties": { "point_id": 451, "radar_y": 1488.5, "radar_x": 19201.5, "velocity_mm_yr": -50.0, "dem_error_m": -32.0, "constant_phase_rad": 1.8117615, "gamma": 0.89500684, "rmse_rad": 0.4699368, "gamma_initial": 0.38163674, "rmse_initial_rad": 1.2966173, "amplitude_dispersion_index": 0.21193483, "mean_amplitude": 0.000103801125, "valid_pair_count": 32, "latitude": -20.092695104598612, "longitude": -44.095348420023214 }, "geometry": { "type": "Point", "coordinates": [ -44.095348420023214, -20.092695104598612 ] } },
{ "type": "Feature", "properties": { "point_id": 452, "radar_y": 1414.5, "radar_x": 21617.5, "velocity_mm_yr": -60.0, "dem_error_m": 36.0, "constant_phase_rad": -0.7835703, "gamma": 0.99999905, "rmse_rad": 0.0013166264, "gamma_initial": 0.5263234, "rmse_initial_rad": 1.1483057, "amplitude_dispersion_index": 0.18705474, "mean_amplitude": 0.00012239197, "valid_pair_count": 32, "latitude": -20.066583053741439, "longitude": -44.162407211455097 }, "geometry": { "type": "Point", "coordinates": [ -44.162407211455097, -20.066583053741439 ] } },
{ "type": "Feature", "properties": { "point_id": 454, "radar_y": 1493.5, "radar_x": 21496.5, "velocity_mm_yr": -60.0, "dem_error_m": 40.0, "constant_phase_rad": -0.8727501, "gamma": 0.98762494, "rmse_rad": 0.15781839, "gamma_initial": 0.5431926, "rmse_initial_rad": 1.104431, "amplitude_dispersion_index": 0.21329112, "mean_amplitude": 0.000108521395, "valid_pair_count": 32, "latitude": -20.07721157695466, "longitude": -44.161892364687866 }, "geometry": { "type": "Point", "coordinates": [ -44.161892364687866, -20.07721157695466 ] } },
{ "type": "Feature", "properties": { "point_id": 462, "radar_y": 1520.5, "radar_x": 21047.5, "velocity_mm_yr": -62.0, "dem_error_m": 36.0, "constant_phase_rad": -1.6184798, "gamma": 0.9009371, "rmse_rad": 0.45448023, "gamma_initial": 0.38411948, "rmse_initial_rad": 1.3348244, "amplitude_dispersion_index": 0.21690197, "mean_amplitude": 0.00015435196, "valid_pair_count": 32, "latitude": -20.083772393752945, "longitude": -44.149278618890698 }, "geometry": { "type": "Point", "coordinates": [ -44.149278618890698, -20.083772393752945 ] } },
{ "type": "Feature", "properties": { "point_id": 468, "radar_y": 1463.5, "radar_x": 21754.5, "velocity_mm_yr": -58.0, "dem_error_m": 40.0, "constant_phase_rad": -0.72952765, "gamma": 0.99912137, "rmse_rad": 0.041926306, "gamma_initial": 0.5035371, "rmse_initial_rad": 1.2137727, "amplitude_dispersion_index": 0.1979922, "mean_amplitude": 0.00025140448, "valid_pair_count": 32, "latitude": -20.071831707180067, "longitude": -44.167684390819218 }, "geometry": { "type": "Point", "coordinates": [ -44.167684390819218, -20.071831707180067 ] } },
{ "type": "Feature", "properties": { "point_id": 469, "radar_y": 1447.5, "radar_x": 21381.5, "velocity_mm_yr": -62.0, "dem_error_m": 40.0, "constant_phase_rad": -1.2630649, "gamma": 0.9884701, "rmse_rad": 0.15216252, "gamma_initial": 0.5173555, "rmse_initial_rad": 1.1785324, "amplitude_dispersion_index": 0.21888806, "mean_amplitude": 0.00014295946, "valid_pair_count": 32, "latitude": -20.07235657252393, "longitude": -44.156615185323744 }, "geometry": { "type": "Point", "coordinates": [ -44.156615185323744, -20.07235657252393 ] } },
{ "type": "Feature", "properties": { "point_id": 475, "radar_y": 1413.5, "radar_x": 21588.5, "velocity_mm_yr": -60.0, "dem_error_m": 40.0, "constant_phase_rad": -0.70900685, "gamma": 0.9333956, "rmse_rad": 0.37320685, "gamma_initial": 0.44642857, "rmse_initial_rad": 1.292819, "amplitude_dispersion_index": 0.20200405, "mean_amplitude": 0.00019318266, "valid_pair_count": 32, "latitude": -20.066845486413371, "longitude": -44.161506229612442 }, "geometry": { "type": "Point", "coordinates": [ -44.161506229612442, -20.066845486413371 ] } },
{ "type": "Feature", "properties": { "point_id": 480, "radar_y": 1579.5, "radar_x": 19179.5, "velocity_mm_yr": -30.0, "dem_error_m": -28.0, "constant_phase_rad": -2.6142783, "gamma": 0.97603565, "rmse_rad": 0.21994607, "gamma_initial": 0.50720733, "rmse_initial_rad": 1.1126227, "amplitude_dispersion_index": 0.22386426, "mean_amplitude": 0.00023246644, "valid_pair_count": 32, "latitude": -20.104373358499558, "longitude": -44.095734555098637 }, "geometry": { "type": "Point", "coordinates": [ -44.095734555098637, -20.104373358499558 ] } },
{ "type": "Feature", "properties": { "point_id": 489, "radar_y": 1543.5, "radar_x": 21161.5, "velocity_mm_yr": -60.0, "dem_error_m": 36.0, "constant_phase_rad": -0.8792653, "gamma": 0.98614484, "rmse_rad": 0.16707681, "gamma_initial": 0.51640767, "rmse_initial_rad": 1.1723201, "amplitude_dispersion_index": 0.22113495, "mean_amplitude": 0.00015665224, "valid_pair_count": 32, "latitude": -20.085478206120499, "longitude": -44.153783528103972 }, "geometry": { "type": "Point", "coordinates": [ -44.153783528103972, -20.085478206120499 ] } },
{ "type": "Feature", "properties": { "point_id": 498, "radar_y": 1498.5, "radar_x": 21495.5, "velocity_mm_yr": -60.0, "dem_error_m": 40.0, "constant_phase_rad": -1.2359532, "gamma": 0.9739393, "rmse_rad": 0.22963941, "gamma_initial": 0.499334, "rmse_initial_rad": 1.1519823, "amplitude_dispersion_index": 0.22176117, "mean_amplitude": 0.00018630472, "valid_pair_count": 32, "latitude": -20.077605225962557, "longitude": -44.162021076379673 }, "geometry": { "type": "Point", "coordinates": [ -44.162021076379673, -20.077605225962557 ] } },
{ "type": "Feature", "properties": { "point_id": 515, "radar_y": 1434.5, "radar_x": 22120.5, "velocity_mm_yr": -62.0, "dem_error_m": 40.0, "constant_phase_rad": -1.155593, "gamma": 0.99098617, "rmse_rad": 0.13457483, "gamma_initial": 0.503518, "rmse_initial_rad": 1.2176054, "amplitude_dispersion_index": 0.22828959, "mean_amplitude": 0.00014239682, "valid_pair_count": 32, "latitude": -20.065533323053714, "longitude": -44.177981326163845 }, "geometry": { "type": "Point", "coordinates": [ -44.177981326163845, -20.065533323053714 ] } },
{ "type": "Feature", "properties": { "point_id": 517, "radar_y": 1445.5, "radar_x": 21544.5, "velocity_mm_yr": -58.0, "dem_error_m": 40.0, "constant_phase_rad": -0.880092, "gamma": 0.9873319, "rmse_rad": 0.16011351, "gamma_initial": 0.5208064, "rmse_initial_rad": 1.1705619, "amplitude_dispersion_index": 0.20574138, "mean_amplitude": 0.000113239825, "valid_pair_count": 32, "latitude": -20.071044409164273, "longitude": -44.161377517920634 }, "geometry": { "type": "Point", "coordinates": [ -44.161377517920634, -20.071044409164273 ] } },
{ "type": "Feature", "properties": { "point_id": 518, "radar_y": 1497.5, "radar_x": 21495.5, "velocity_mm_yr": -60.0, "dem_error_m": 36.0, "constant_phase_rad": -1.4037197, "gamma": 0.9819957, "rmse_rad": 0.19045453, "gamma_initial": 0.51149887, "rmse_initial_rad": 1.1506057, "amplitude_dispersion_index": 0.2204059, "mean_amplitude": 0.00024409748, "valid_pair_count": 32, "latitude": -20.077605225962557, "longitude": -44.162021076379673 }, "geometry": { "type": "Point", "coordinates": [ -44.162021076379673, -20.077605225962557 ] } },
{ "type": "Feature", "properties": { "point_id": 520, "radar_y": 1545.5, "radar_x": 21030.5, "velocity_mm_yr": -60.0, "dem_error_m": 32.0, "constant_phase_rad": -1.4351246, "gamma": 0.9329311, "rmse_rad": 0.37142602, "gamma_initial": 0.42887276, "rmse_initial_rad": 1.3489453, "amplitude_dispersion_index": 0.22161011, "mean_amplitude": 0.00016959709, "valid_pair_count": 32, "latitude": -20.086921585816121, "longitude": -44.149922177349737 }, "geometry": { "type": "Point", "coordinates": [ -44.149922177349737, -20.086921585816121 ] } },
{ "type": "Feature", "properties": { "point_id": 533, "radar_y": 1492.5, "radar_x": 19131.5, "velocity_mm_yr": -54.0, "dem_error_m": -36.0, "constant_phase_rad": 1.3598804, "gamma": 0.92416435, "rmse_rad": 0.39691073, "gamma_initial": 0.45568395, "rmse_initial_rad": 1.2024809, "amplitude_dispersion_index": 0.22529994, "mean_amplitude": 0.00012681105, "valid_pair_count": 32, "latitude": -20.093613618950371, "longitude": -44.093546456337904 }, "geometry": { "type": "Point", "coordinates": [ -44.093546456337904, -20.093613618950371 ] } },
{ "type": "Feature", "properties": { "point_id": 538, "radar_y": 1494.5, "radar_x": 21253.5, "velocity_mm_yr": -60.0, "dem_error_m": 40.0, "constant_phase_rad": -0.021638995, "gamma": 0.9603823, "rmse_rad": 0.28433818, "gamma_initial": 0.5365753, "rmse_initial_rad": 1.082714, "amplitude_dispersion_index": 0.2098461, "mean_amplitude": 7.573011e-05, "valid_pair_count": 32, "latitude": -20.07904860565818, "longitude": -44.154684509946627 }, "geometry": { "type": "Point", "coordinates": [ -44.154684509946627, -20.07904860565818 ] } },
{ "type": "Feature", "properties": { "point_id": 547, "radar_y": 1452.5, "radar_x": 21194.5, "velocity_mm_yr": -62.0, "dem_error_m": 40.0, "constant_phase_rad": -1.1870877, "gamma": 0.90768754, "rmse_rad": 0.43956012, "gamma_initial": 0.4103184, "rmse_initial_rad": 1.2931021, "amplitude_dispersion_index": 0.21304497, "mean_amplitude": 0.00048326713, "valid_pair_count": 32, "latitude": -20.074324817563415, "longitude": -44.150951870884199 }, "geometry": { "type": "Point", "coordinates": [ -44.150951870884199, -20.074324817563415 ] } },
{ "type": "Feature", "properties": { "point_id": 551, "radar_y": 1494.5, "radar_x": 19155.5, "velocity_mm_yr": -60.0, "dem_error_m": -40.0, "constant_phase_rad": 1.6945103, "gamma": 0.9269395, "rmse_rad": 0.38688326, "gamma_initial": 0.44026893, "rmse_initial_rad": 1.1990443, "amplitude_dispersion_index": 0.22368047, "mean_amplitude": 8.363042e-05, "valid_pair_count": 32, "latitude": -20.093613618950371, "longitude": -44.094318726488751 }, "geometry": { "type": "Point", "coordinates": [ -44.094318726488751, -20.093613618950371 ] } },
{ "type": "Feature", "properties": { "point_id": 573, "radar_y": 1582.5, "radar_x": 19213.5, "velocity_mm_yr": -26.0, "dem_error_m": -40.0, "constant_phase_rad": -2.8807619, "gamma": 0.981993, "rmse_rad": 0.19041304, "gamma_initial": 0.5239031, "rmse_initial_rad": 1.134338, "amplitude_dispersion_index": 0.21994461, "mean_amplitude": 0.00020242653, "valid_pair_count": 32, "latitude": -20.104373358499558, "longitude": -44.097150383708524 }, "geometry": { "type": "Point", "coordinates": [ -44.097150383708524, -20.104373358499558 ] } },
{ "type": "Feature", "properties": { "point_id": 591, "radar_y": 1583.5, "radar_x": 19190.5, "velocity_mm_yr": -28.0, "dem_error_m": -28.0, "constant_phase_rad": -3.092794, "gamma": 0.88030064, "rmse_rad": 0.50150853, "gamma_initial": 0.47498426, "rmse_initial_rad": 1.2647886, "amplitude_dispersion_index": 0.24380408, "mean_amplitude": 0.00016093155, "valid_pair_count": 32, "latitude": -20.104767007507455, "longitude": -44.096378113557677 }, "geometry": { "type": "Point", "coordinates": [ -44.096378113557677, -20.104767007507455 ] } },
{ "type": "Feature", "properties": { "point_id": 595, "radar_y": 1488.5, "radar_x": 19115.5, "velocity_mm_yr": -60.0, "dem_error_m": -36.0, "constant_phase_rad": 1.9978651, "gamma": 0.9506957, "rmse_rad": 0.31798822, "gamma_initial": 0.46902725, "rmse_initial_rad": 1.2096643, "amplitude_dispersion_index": 0.22435091, "mean_amplitude": 0.00015162292, "valid_pair_count": 32, "latitude": -20.093088753606509, "longitude": -44.092774186187057 }, "geometry": { "type": "Point", "coordinates": [ -44.092774186187057, -20.093088753606509 ] } },
{ "type": "Feature", "properties": { "point_id": 597, "radar_y": 1496.5, "radar_x": 19166.5, "velocity_mm_yr": -56.0, "dem_error_m": -40.0, "constant_phase_rad": 1.6082065, "gamma": 0.9236856, "rmse_rad": 0.39662957, "gamma_initial": 0.4269904, "rmse_initial_rad": 1.2363955, "amplitude_dispersion_index": 0.221461, "mean_amplitude": 0.00016114896, "valid_pair_count": 32, "latitude": -20.093613618950371, "longitude": -44.094704861564175 }, "geometry": { "type": "Point", "coordinates": [ -44.094704861564175, -20.093613618950371 ] } },
{ "type": "Feature", "properties": { "point_id": 617, "radar_y": 1512.5, "radar_x": 19167.5, "velocity_mm_yr": -28.0, "dem_error_m": -12.0, "constant_phase_rad": 1.326956, "gamma": 0.91071886, "rmse_rad": 0.43331236, "gamma_initial": 0.44547072, "rmse_initial_rad": 1.201973, "amplitude_dispersion_index": 0.20454994, "mean_amplitude": 0.00030632524, "valid_pair_count": 32, "latitude": -20.095581863989857, "longitude": -44.095348420023214 }, "geometry": { "type": "Point", "coordinates": [ -44.095348420023214, -20.095581863989857 ] } },
{ "type": "Feature", "properties": { "point_id": 621, "radar_y": 1511.5, "radar_x": 19167.5, "velocity_mm_yr": -30.0, "dem_error_m": -16.0, "constant_phase_rad": 1.3725809, "gamma": 0.919275, "rmse_rad": 0.40785578, "gamma_initial": 0.46167073, "rmse_initial_rad": 1.1756694, "amplitude_dispersion_index": 0.221529, "mean_amplitude": 0.00037647443, "valid_pair_count": 32, "latitude": -20.095581863989857, "longitude": -44.095348420023214 }, "geometry": { "type": "Point", "coordinates": [ -44.095348420023214, -20.095581863989857 ] } },
{ "type": "Feature", "properties": { "point_id": 631, "radar_y": 1537.5, "radar_x": 21046.5, "velocity_mm_yr": -62.0, "dem_error_m": 32.0, "constant_phase_rad": -1.0195479, "gamma": 0.96217763, "rmse_rad": 0.27867618, "gamma_initial": 0.4911133, "rmse_initial_rad": 1.258974, "amplitude_dispersion_index": 0.2173203, "mean_amplitude": 0.00012443759, "valid_pair_count": 32, "latitude": -20.08574063879243, "longitude": -44.150050889041545 }, "geometry": { "type": "Point", "coordinates": [ -44.150050889041545, -20.08574063879243 ] } },
{ "type": "Feature", "properties": { "point_id": 632, "radar_y": 1407.5, "radar_x": 21490.5, "velocity_mm_yr": -62.0, "dem_error_m": 32.0, "constant_phase_rad": -0.865381, "gamma": 0.9420799, "rmse_rad": 0.3442246, "gamma_initial": 0.44813883, "rmse_initial_rad": 1.2309767, "amplitude_dispersion_index": 0.21013477, "mean_amplitude": 0.0001555898, "valid_pair_count": 32, "latitude": -20.066714270077405, "longitude": -44.158417149009054 }, "geometry": { "type": "Point", "coordinates": [ -44.158417149009054, -20.066714270077405 ] } },
{ "type": "Feature", "properties": { "point_id": 639, "radar_y": 1483.5, "radar_x": 21022.5, "velocity_mm_yr": -62.0, "dem_error_m": 40.0, "constant_phase_rad": -1.5116135, "gamma": 0.9141801, "rmse_rad": 0.42269146, "gamma_initial": 0.38879326, "rmse_initial_rad": 1.29555, "amplitude_dispersion_index": 0.23625557, "mean_amplitude": 0.00014431524, "valid_pair_count": 32, "latitude": -20.079442254666077, "longitude": -44.147219231821772 }, "geometry": { "type": "Point", "coordinates": [ -44.147219231821772, -20.079442254666077 ] } },
{ "type": "Feature", "properties": { "point_id": 642, "radar_y": 1492.5, "radar_x": 19128.5, "velocity_mm_yr": -50.0, "dem_error_m": -32.0, "constant_phase_rad": 1.5953062, "gamma": 0.95720506, "rmse_rad": 0.29472056, "gamma_initial": 0.46101868, "rmse_initial_rad": 1.1953183, "amplitude_dispersion_index": 0.22483774, "mean_amplitude": 0.00017313514, "valid_pair_count": 32, "latitude": -20.093613618950371, "longitude": -44.093417744646096 }, "geometry": { "type": "Point", "coordinates": [ -44.093417744646096, -20.093613618950371 ] } },
{ "type": "Feature", "properties": { "point_id": 659, "radar_y": 1494.5, "radar_x": 19117.5, "velocity_mm_yr": -26.0, "dem_error_m": 0.0, "constant_phase_rad": 1.6553823, "gamma": 0.9202357, "rmse_rad": 0.41621837, "gamma_initial": 0.4238018, "rmse_initial_rad": 1.2815943, "amplitude_dispersion_index": 0.23191184, "mean_amplitude": 0.0004714754, "valid_pair_count": 32, "latitude": -20.093876051622303, "longitude": -44.093160321262481 }, "geometry": { "type": "Point", "coordinates": [ -44.093160321262481, -20.093876051622303 ] } },
{ "type": "Feature", "properties": { "point_id": 666, "radar_y": 1535.5, "radar_x": 19195.5, "velocity_mm_yr": -32.0, "dem_error_m": -20.0, "constant_phase_rad": 2.206041, "gamma": 0.8369649, "rmse_rad": 0.59542996, "gamma_initial": 0.46403384, "rmse_initial_rad": 1.1947036, "amplitude_dispersion_index": 0.22777635, "mean_amplitude": 0.00024879372, "valid_pair_count": 32, "latitude": -20.098599839717068, "longitude": -44.096120690174061 }, "geometry": { "type": "Point", "coordinates": [ -44.096120690174061, -20.098599839717068 ] } },
{ "type": "Feature", "properties": { "point_id": 674, "radar_y": 1416.5, "radar_x": 21468.5, "velocity_mm_yr": -60.0, "dem_error_m": 40.0, "constant_phase_rad": -0.70181346, "gamma": 0.9488301, "rmse_rad": 0.32394177, "gamma_initial": 0.45896307, "rmse_initial_rad": 1.2486024, "amplitude_dispersion_index": 0.21363357, "mean_amplitude": 0.00017669244, "valid_pair_count": 32, "latitude": -20.068026433437062, "longitude": -44.158031013933631 }, "geometry": { "type": "Point", "coordinates": [ -44.158031013933631, -20.068026433437062 ] } },
{ "type": "Feature", "properties": { "point_id": 687, "radar_y": 1513.5, "radar_x": 19170.5, "velocity_mm_yr": -26.0, "dem_error_m": -12.0, "constant_phase_rad": 1.2933973, "gamma": 0.9264778, "rmse_rad": 0.39259818, "gamma_initial": 0.417652, "rmse_initial_rad": 1.2304267, "amplitude_dispersion_index": 0.2429174, "mean_amplitude": 0.0003334301, "valid_pair_count": 32, "latitude": -20.095844296661788, "longitude": -44.095348420023214 }, "geometry": { "type": "Point", "coordinates": [ -44.095348420023214, -20.095844296661788 ] } },
{ "type": "Feature", "properties": { "point_id": 689, "radar_y": 1562.5, "radar_x": 19163.5, "velocity_mm_yr": -40.0, "dem_error_m": -24.0, "constant_phase_rad": -2.7516148, "gamma": 0.8999888, "rmse_rad": 0.45509607, "gamma_initial": 0.46763992, "rmse_initial_rad": 1.2582577, "amplitude_dispersion_index": 0.22149613, "mean_amplitude": 0.00017279296, "valid_pair_count": 32, "latitude": -20.102273897124107, "longitude": -44.094704861564175 }, "geometry": { "type": "Point", "coordinates": [ -44.094704861564175, -20.102273897124107 ] } },
{ "type": "Feature", "properties": { "point_id": 699, "radar_y": 1487.5, "radar_x": 19114.5, "velocity_mm_yr": -60.0, "dem_error_m": -36.0, "constant_phase_rad": 1.7918854, "gamma": 0.8248223, "rmse_rad": 0.62379014, "gamma_initial": 0.35988715, "rmse_initial_rad": 1.355048, "amplitude_dispersion_index": 0.22112992, "mean_amplitude": 0.00010524349, "valid_pair_count": 32, "latitude": -20.092957537270543, "longitude": -44.092774186187057 }, "geometry": { "type": "Point", "coordinates": [ -44.092774186187057, -20.092957537270543 ] } },
{ "type": "Feature", "properties": { "point_id": 704, "radar_y": 1463.5, "radar_x": 21556.5, "velocity_mm_yr": -60.0, "dem_error_m": 40.0, "constant_phase_rad": -0.88680446, "gamma": 0.9730441, "rmse_rad": 0.23360339, "gamma_initial": 0.49505782, "rmse_initial_rad": 1.2220825, "amplitude_dispersion_index": 0.21389751, "mean_amplitude": 0.00015998124, "valid_pair_count": 32, "latitude": -20.073012654203758, "longitude": -44.162278499763289 }, "geometry": { "type": "Point", "coordinates": [ -44.162278499763289, -20.073012654203758 ] } },
{ "type": "Feature", "properties": { "point_id": 738, "radar_y": 1446.5, "radar_x": 21544.5, "velocity_mm_yr": -58.0, "dem_error_m": 40.0, "constant_phase_rad": -0.97786313, "gamma": 0.9537537, "rmse_rad": 0.30705687, "gamma_initial": 0.46456742, "rmse_initial_rad": 1.2021791, "amplitude_dispersion_index": 0.21450779, "mean_amplitude": 8.5356805e-05, "valid_pair_count": 32, "latitude": -20.071044409164273, "longitude": -44.161377517920634 }, "geometry": { "type": "Point", "coordinates": [ -44.161377517920634, -20.071044409164273 ] } },
{ "type": "Feature", "properties": { "point_id": 743, "radar_y": 1567.5, "radar_x": 19172.5, "velocity_mm_yr": -34.0, "dem_error_m": -32.0, "constant_phase_rad": -2.770319, "gamma": 0.963839, "rmse_rad": 0.27309382, "gamma_initial": 0.46462232, "rmse_initial_rad": 1.1717582, "amplitude_dispersion_index": 0.2487394, "mean_amplitude": 0.00023321668, "valid_pair_count": 32, "latitude": -20.102929978803935, "longitude": -44.095219708331406 }, "geometry": { "type": "Point", "coordinates": [ -44.095219708331406, -20.102929978803935 ] } },
{ "type": "Feature", "properties": { "point_id": 748, "radar_y": 1478.5, "radar_x": 21715.5, "velocity_mm_yr": -60.0, "dem_error_m": 40.0, "constant_phase_rad": -0.7017774, "gamma": 0.9394868, "rmse_rad": 0.35379896, "gamma_initial": 0.4812288, "rmse_initial_rad": 1.2246518, "amplitude_dispersion_index": 0.2385987, "mean_amplitude": 0.00016835134, "valid_pair_count": 32, "latitude": -20.073799952219552, "longitude": -44.167298255743795 }, "geometry": { "type": "Point", "coordinates": [ -44.167298255743795, -20.073799952219552 ] } },
{ "type": "Feature", "properties": { "point_id": 749, "radar_y": 1393.5, "radar_x": 21550.5, "velocity_mm_yr": -60.0, "dem_error_m": 36.0, "constant_phase_rad": -1.1956413, "gamma": 0.9923783, "rmse_rad": 0.1236501, "gamma_initial": 0.53758603, "rmse_initial_rad": 1.104861, "amplitude_dispersion_index": 0.23288263, "mean_amplitude": 0.00010213836, "valid_pair_count": 32, "latitude": -20.064614808701954, "longitude": -44.159704265927132 }, "geometry": { "type": "Point", "coordinates": [ -44.159704265927132, -20.064614808701954 ] } },
{ "type": "Feature", "properties": { "point_id": 753, "radar_y": 1502.5, "radar_x": 19146.5, "velocity_mm_yr": -30.0, "dem_error_m": 4.0, "constant_phase_rad": 1.8955357, "gamma": 0.93633944, "rmse_rad": 0.3616963, "gamma_initial": 0.46416453, "rmse_initial_rad": 1.1998523, "amplitude_dispersion_index": 0.24223724, "mean_amplitude": 0.0002814164, "valid_pair_count": 32, "latitude": -20.094532133302131, "longitude": -44.094447438180559 }, "geometry": { "type": "Point", "coordinates": [ -44.094447438180559, -20.094532133302131 ] } },
{ "type": "Feature", "properties": { "point_id": 772, "radar_y": 1499.5, "radar_x": 19127.5, "velocity_mm_yr": -26.0, "dem_error_m": 12.0, "constant_phase_rad": 1.7734417, "gamma": 0.9233013, "rmse_rad": 0.3976936, "gamma_initial": 0.48072103, "rmse_initial_rad": 1.1686693, "amplitude_dispersion_index": 0.23818585, "mean_amplitude": 0.00025641994, "valid_pair_count": 32, "latitude": -20.094400916966165, "longitude": -44.093546456337904 }, "geometry": { "type": "Point", "coordinates": [ -44.093546456337904, -20.094400916966165 ] } },
{ "type": "Feature", "properties": { "point_id": 778, "radar_y": 1526.5, "radar_x": 21007.5, "velocity_mm_yr": -64.0, "dem_error_m": 40.0, "constant_phase_rad": -1.1246109, "gamma": 0.993268, "rmse_rad": 0.11620175, "gamma_initial": 0.525702, "rmse_initial_rad": 1.1507576, "amplitude_dispersion_index": 0.217038, "mean_amplitude": 0.000119338845, "valid_pair_count": 32, "latitude": -20.084690908104704, "longitude": -44.148248925356235 }, "geometry": { "type": "Point", "coordinates": [ -44.148248925356235, -20.084690908104704 ] } },
{ "type": "Feature", "properties": { "point_id": 781, "radar_y": 1487.5, "radar_x": 19115.5, "velocity_mm_yr": -64.0, "dem_error_m": -40.0, "constant_phase_rad": 1.6591699, "gamma": 0.9240293, "rmse_rad": 0.3957767, "gamma_initial": 0.44315082, "rmse_initial_rad": 1.1932906, "amplitude_dispersion_index": 0.23231132, "mean_amplitude": 0.00016137642, "valid_pair_count": 32, "latitude": -20.092957537270543, "longitude": -44.092774186187057 }, "geometry": { "type": "Point", "coordinates": [ -44.092774186187057, -20.092957537270543 ] } },
{ "type": "Feature", "properties": { "point_id": 785, "radar_y": 1478.5, "radar_x": 21336.5, "velocity_mm_yr": -58.0, "dem_error_m": 32.0, "constant_phase_rad": -1.1831981, "gamma": 0.947436, "rmse_rad": 0.32984012, "gamma_initial": 0.49851537, "rmse_initial_rad": 1.1349251, "amplitude_dispersion_index": 0.24211547, "mean_amplitude": 8.705073e-05, "valid_pair_count": 32, "latitude": -20.076555495274832, "longitude": -44.156486473631936 }, "geometry": { "type": "Point", "coordinates": [ -44.156486473631936, -20.076555495274832 ] } },
{ "type": "Feature", "properties": { "point_id": 795, "radar_y": 1584.5, "radar_x": 19221.5, "velocity_mm_yr": -30.0, "dem_error_m": -40.0, "constant_phase_rad": -3.125837, "gamma": 0.8850024, "rmse_rad": 0.53440773, "gamma_initial": 0.4433767, "rmse_initial_rad": 1.2759767, "amplitude_dispersion_index": 0.22723202, "mean_amplitude": 0.0001532011, "valid_pair_count": 32, "latitude": -20.104635791171489, "longitude": -44.097407807092139 }, "geometry": { "type": "Point", "coordinates": [ -44.097407807092139, -20.104635791171489 ] } },
{ "type": "Feature", "properties": { "point_id": 800, "radar_y": 1481.5, "radar_x": 21715.5, "velocity_mm_yr": -60.0, "dem_error_m": 40.0, "constant_phase_rad": -0.47984254, "gamma": 0.99912155, "rmse_rad": 0.04192622, "gamma_initial": 0.50038314, "rmse_initial_rad": 1.1914209, "amplitude_dispersion_index": 0.23580386, "mean_amplitude": 0.00012518003, "valid_pair_count": 32, "latitude": -20.074324817563415, "longitude": -44.167426967435603 }, "geometry": { "type": "Point", "coordinates": [ -44.167426967435603, -20.074324817563415 ] } },
{ "type": "Feature", "properties": { "point_id": 809, "radar_y": 1491.5, "radar_x": 21490.5, "velocity_mm_yr": -60.0, "dem_error_m": 40.0, "constant_phase_rad": -0.5302432, "gamma": 0.9765173, "rmse_rad": 0.21793333, "gamma_initial": 0.48575768, "rmse_initial_rad": 1.1745634, "amplitude_dispersion_index": 0.2365612, "mean_amplitude": 0.00012580244, "valid_pair_count": 32, "latitude": -20.076817927946763, "longitude": -44.16163494130425 }, "geometry": { "type": "Point", "coordinates": [ -44.16163494130425, -20.076817927946763 ] } },
{ "type": "Feature", "properties": { "point_id": 810, "radar_y": 1401.5, "radar_x": 21522.5, "velocity_mm_yr": -64.0, "dem_error_m": 40.0, "constant_phase_rad": -0.4641025, "gamma": 0.9807913, "rmse_rad": 0.19675484, "gamma_initial": 0.4931984, "rmse_initial_rad": 1.2060565, "amplitude_dispersion_index": 0.22297284, "mean_amplitude": 0.00012886837, "valid_pair_count": 32, "latitude": -20.06566453938968, "longitude": -44.159060707468093 }, "geometry": { "type": "Point", "coordinates": [ -44.159060707468093, -20.06566453938968 ] } },
{ "type": "Feature", "properties": { "point_id": 812, "radar_y": 1582.5, "radar_x": 19187.5, "velocity_mm_yr": -32.0, "dem_error_m": -28.0, "constant_phase_rad": 3.1411452, "gamma": 0.9810543, "rmse_rad": 0.19555587, "gamma_initial": 0.5431636, "rmse_initial_rad": 1.1099436, "amplitude_dispersion_index": 0.24058457, "mean_amplitude": 0.00018460231, "valid_pair_count": 32, "latitude": -20.104635791171489, "longitude": -44.096120690174061 }, "geometry": { "type": "Point", "coordinates": [ -44.096120690174061, -20.104635791171489 ] } },
{ "type": "Feature", "properties": { "point_id": 815, "radar_y": 1491.5, "radar_x": 19116.5, "velocity_mm_yr": -34.0, "dem_error_m": -32.0, "constant_phase_rad": 1.6862489, "gamma": 0.9477484, "rmse_rad": 0.3269546, "gamma_initial": 0.4639225, "rmse_initial_rad": 1.2004163, "amplitude_dispersion_index": 0.24155085, "mean_amplitude": 0.00027799365, "valid_pair_count": 32, "latitude": -20.093613618950371, "longitude": -44.092902897878865 }, "geometry": { "type": "Point", "coordinates": [ -44.092902897878865, -20.093613618950371 ] } },
{ "type": "Feature", "properties": { "point_id": 817, "radar_y": 1513.5, "radar_x": 21182.5, "velocity_mm_yr": -60.0, "dem_error_m": 40.0, "constant_phase_rad": -0.7484385, "gamma": 0.97455287, "rmse_rad": 0.22695863, "gamma_initial": 0.48749062, "rmse_initial_rad": 1.1891918, "amplitude_dispersion_index": 0.23753211, "mean_amplitude": 0.00013418394, "valid_pair_count": 32, "latitude": -20.081935365049425, "longitude": -44.153268681336741 }, "geometry": { "type": "Point", "coordinates": [ -44.153268681336741, -20.081935365049425 ] } },
{ "type": "Feature", "properties": { "point_id": 819, "radar_y": 1427.5, "radar_x": 21324.5, "velocity_mm_yr": -58.0, "dem_error_m": 40.0, "constant_phase_rad": -0.565291, "gamma": 0.96879125, "rmse_rad": 0.251771, "gamma_initial": 0.5041665, "rmse_initial_rad": 1.2176324, "amplitude_dispersion_index": 0.22422275, "mean_amplitude": 0.00012923428, "valid_pair_count": 32, "latitude": -20.070257111148479, "longitude": -44.15391223979578 }, "geometry": { "type": "Point", "coordinates": [ -44.15391223979578, -20.070257111148479 ] } },
{ "type": "Feature", "properties": { "point_id": 826, "radar_y": 1549.5, "radar_x": 19184.5, "velocity_mm_yr": -40.0, "dem_error_m": -32.0, "constant_phase_rad": 2.210796, "gamma": 0.85571986, "rmse_rad": 0.5583373, "gamma_initial": 0.48099643, "rmse_initial_rad": 1.1642038, "amplitude_dispersion_index": 0.24542302, "mean_amplitude": 0.00029766848, "valid_pair_count": 32, "latitude": -20.100436868420587, "longitude": -44.095734555098637 }, "geometry": { "type": "Point", "coordinates": [ -44.095734555098637, -20.100436868420587 ] } },
{ "type": "Feature", "properties": { "point_id": 839, "radar_y": 1499.5, "radar_x": 21230.5, "velocity_mm_yr": -60.0, "dem_error_m": 40.0, "constant_phase_rad": -1.093807, "gamma": 0.9838538, "rmse_rad": 0.18029623, "gamma_initial": 0.49878815, "rmse_initial_rad": 1.130165, "amplitude_dispersion_index": 0.23935002, "mean_amplitude": 0.00027133914, "valid_pair_count": 32, "latitude": -20.079835903673974, "longitude": -44.154169663179395 }, "geometry": { "type": "Point", "coordinates": [ -44.154169663179395, -20.079835903673974 ] } },
{ "type": "Feature", "properties": { "point_id": 842, "radar_y": 1492.5, "radar_x": 21496.5, "velocity_mm_yr": -62.0, "dem_error_m": 36.0, "constant_phase_rad": -1.0378343, "gamma": 0.98912096, "rmse_rad": 0.14776096, "gamma_initial": 0.53046113, "rmse_initial_rad": 1.1150821, "amplitude_dispersion_index": 0.22787876, "mean_amplitude": 9.263296e-05, "valid_pair_count": 32, "latitude": -20.077080360618694, "longitude": -44.161892364687866 }, "geometry": { "type": "Point", "coordinates": [ -44.161892364687866, -20.077080360618694 ] } },
{ "type": "Feature", "properties": { "point_id": 843, "radar_y": 1538.5, "radar_x": 19228.5, "velocity_mm_yr": -42.0, "dem_error_m": -16.0, "constant_phase_rad": 2.5996866, "gamma": 0.8399253, "rmse_rad": 0.5894708, "gamma_initial": 0.4489147, "rmse_initial_rad": 1.2046281, "amplitude_dispersion_index": 0.22958055, "mean_amplitude": 0.00012341807, "valid_pair_count": 32, "latitude": -20.098731056053033, "longitude": -44.097150383708524 }, "geometry": { "type": "Point", "coordinates": [ -44.097150383708524, -20.098731056053033 ] } },
{ "type": "Feature", "properties": { "point_id": 849, "radar_y": 1539.5, "radar_x": 19220.5, "velocity_mm_yr": -40.0, "dem_error_m": -16.0, "constant_phase_rad": 3.0531375, "gamma": 0.8082655, "rmse_rad": 0.64302075, "gamma_initial": 0.3865662, "rmse_initial_rad": 1.316683, "amplitude_dispersion_index": 0.23864205, "mean_amplitude": 0.00013250821, "valid_pair_count": 32, "latitude": -20.098862272388999, "longitude": -44.096892960324908 }, "geometry": { "type": "Point", "coordinates": [ -44.096892960324908, -20.098862272388999 ] } },
{ "type": "Feature", "properties": { "point_id": 878, "radar_y": 1498.5, "radar_x": 21271.5, "velocity_mm_yr": -60.0, "dem_error_m": 40.0, "constant_phase_rad": -0.9439341, "gamma": 0.98164153, "rmse_rad": 0.19241036, "gamma_initial": 0.50281405, "rmse_initial_rad": 1.1554395, "amplitude_dispersion_index": 0.24028865, "mean_amplitude": 0.00024076854, "valid_pair_count": 32, "latitude": -20.079442254666077, "longitude": -44.155328068405666 }, "geometry": { "type": "Point", "coordinates": [ -44.155328068405666, -20.079442254666077 ] } },
{ "type": "Feature", "properties": { "point_id": 879, "radar_y": 1524.5, "radar_x": 21120.5, "velocity_mm_yr": -62.0, "dem_error_m": 40.0, "constant_phase_rad": -0.8870819, "gamma": 0.94224805, "rmse_rad": 0.34635422, "gamma_initial": 0.47005823, "rmse_initial_rad": 1.2152352, "amplitude_dispersion_index": 0.23466736, "mean_amplitude": 0.00017846754, "valid_pair_count": 32, "latitude": -20.083772393752945, "longitude": -44.151724141035047 }, "geometry": { "type": "Point", "coordinates": [ -44.151724141035047, -20.083772393752945 ] } },
{ "type": "Feature", "properties": { "point_id": 881, "radar_y": 1538.5, "radar_x": 19231.5, "velocity_mm_yr": -40.0, "dem_error_m": -16.0, "constant_phase_rad": 2.5140772, "gamma": 0.8462761, "rmse_rad": 0.57560474, "gamma_initial": 0.48631805, "rmse_initial_rad": 1.1639234, "amplitude_dispersion_index": 0.22890337, "mean_amplitude": 7.089602e-05, "valid_pair_count": 32, "latitude": -20.098731056053033, "longitude": -44.097279095400332 }, "geometry": { "type": "Point", "coordinates": [ -44.097279095400332, -20.098731056053033 ] } },
{ "type": "Feature", "properties": { "point_id": 902, "radar_y": 1463.5, "radar_x": 19111.5, "velocity_mm_yr": -54.0, "dem_error_m": -32.0, "constant_phase_rad": 1.851952, "gamma": 0.9236139, "rmse_rad": 0.3990633, "gamma_initial": 0.4296697, "rmse_initial_rad": 1.2585865, "amplitude_dispersion_index": 0.23943725, "mean_amplitude": 0.00012808619, "valid_pair_count": 32, "latitude": -20.090201994215263, "longitude": -44.091358357577171 }, "geometry": { "type": "Point", "coordinates": [ -44.091358357577171, -20.090201994215263 ] } },
{ "type": "Feature", "properties": { "point_id": 917, "radar_y": 1474.5, "radar_x": 19094.5, "velocity_mm_yr": -66.0, "dem_error_m": -28.0, "constant_phase_rad": 1.5190643, "gamma": 0.8399489, "rmse_rad": 0.58606946, "gamma_initial": 0.3593432, "rmse_initial_rad": 1.315527, "amplitude_dispersion_index": 0.23359168, "mean_amplitude": 6.524553e-05, "valid_pair_count": 32, "latitude": -20.091645373910886, "longitude": -44.091744492652595 }, "geometry": { "type": "Point", "coordinates": [ -44.091744492652595, -20.091645373910886 ] } },
{ "type": "Feature", "properties": { "point_id": 922, "radar_y": 1523.5, "radar_x": 19192.5, "velocity_mm_yr": -32.0, "dem_error_m": -16.0, "constant_phase_rad": 1.986766, "gamma": 0.8334973, "rmse_rad": 0.6023138, "gamma_initial": 0.4490721, "rmse_initial_rad": 1.2366017, "amplitude_dispersion_index": 0.22462654, "mean_amplitude": 0.00019463511, "valid_pair_count": 32, "latitude": -20.097025243685479, "longitude": -44.095863266790445 }, "geometry": { "type": "Point", "coordinates": [ -44.095863266790445, -20.097025243685479 ] } },
{ "type": "Feature", "properties": { "point_id": 953, "radar_y": 1539.5, "radar_x": 19227.5, "velocity_mm_yr": -42.0, "dem_error_m": -12.0, "constant_phase_rad": 2.8248644, "gamma": 0.81594616, "rmse_rad": 0.6319421, "gamma_initial": 0.43559134, "rmse_initial_rad": 1.2498281, "amplitude_dispersion_index": 0.22483456, "mean_amplitude": 0.00016212075, "valid_pair_count": 32, "latitude": -20.098862272388999, "longitude": -44.097150383708524 }, "geometry": { "type": "Point", "coordinates": [ -44.097150383708524, -20.098862272388999 ] } },
{ "type": "Feature", "properties": { "point_id": 988, "radar_y": 1402.5, "radar_x": 21521.5, "velocity_mm_yr": -64.0, "dem_error_m": 36.0, "constant_phase_rad": -0.49714974, "gamma": 0.9466307, "rmse_rad": 0.33186823, "gamma_initial": 0.46503484, "rmse_initial_rad": 1.2347527, "amplitude_dispersion_index": 0.23593827, "mean_amplitude": 9.492854e-05, "valid_pair_count": 32, "latitude": -20.065926972061611, "longitude": -44.159189419159901 }, "geometry": { "type": "Point", "coordinates": [ -44.159189419159901, -20.065926972061611 ] } },
{ "type": "Feature", "properties": { "point_id": 991, "radar_y": 1545.5, "radar_x": 21279.5, "velocity_mm_yr": -60.0, "dem_error_m": 40.0, "constant_phase_rad": -0.6759823, "gamma": 0.9994936, "rmse_rad": 0.03182455, "gamma_initial": 0.5027816, "rmse_initial_rad": 1.147484, "amplitude_dispersion_index": 0.23950803, "mean_amplitude": 0.00027012592, "valid_pair_count": 32, "latitude": -20.08482212444067, "longitude": -44.157516167166399 }, "geometry": { "type": "Point", "coordinates": [ -44.157516167166399, -20.08482212444067 ] } },
{ "type": "Feature", "properties": { "point_id": 1001, "radar_y": 1492.5, "radar_x": 21497.5, "velocity_mm_yr": -64.0, "dem_error_m": 32.0, "constant_phase_rad": -1.5896491, "gamma": 0.96615434, "rmse_rad": 0.26191953, "gamma_initial": 0.50016516, "rmse_initial_rad": 1.1684014, "amplitude_dispersion_index": 0.23441048, "mean_amplitude": 8.023096e-05, "valid_pair_count": 32, "latitude": -20.076817927946763, "longitude": -44.161892364687866 }, "geometry": { "type": "Point", "coordinates": [ -44.161892364687866, -20.076817927946763 ] } },
{ "type": "Feature", "properties": { "point_id": 1002, "radar_y": 1504.5, "radar_x": 19148.5, "velocity_mm_yr": -34.0, "dem_error_m": -32.0, "constant_phase_rad": 1.2311689, "gamma": 1.0, "rmse_rad": 0.00039513933, "gamma_initial": 0.5228927, "rmse_initial_rad": 1.110514, "amplitude_dispersion_index": 0.22878867, "mean_amplitude": 0.00025367626, "valid_pair_count": 32, "latitude": -20.094925782310028, "longitude": -44.094447438180559 }, "geometry": { "type": "Point", "coordinates": [ -44.094447438180559, -20.094925782310028 ] } },
{ "type": "Feature", "properties": { "point_id": 1010, "radar_y": 1527.5, "radar_x": 21180.5, "velocity_mm_yr": -62.0, "dem_error_m": 40.0, "constant_phase_rad": -1.0673506, "gamma": 0.99335134, "rmse_rad": 0.11545927, "gamma_initial": 0.4891825, "rmse_initial_rad": 1.1989082, "amplitude_dispersion_index": 0.23778822, "mean_amplitude": 0.00019389139, "valid_pair_count": 32, "latitude": -20.083509961081013, "longitude": -44.153654816412164 }, "geometry": { "type": "Point", "coordinates": [ -44.153654816412164, -20.083509961081013 ] } },
{ "type": "Feature", "properties": { "point_id": 1020, "radar_y": 1458.5, "radar_x": 21588.5, "velocity_mm_yr": -60.0, "dem_error_m": 40.0, "constant_phase_rad": -0.98772335, "gamma": 0.91512394, "rmse_rad": 0.41756633, "gamma_initial": 0.47934744, "rmse_initial_rad": 1.2021703, "amplitude_dispersion_index": 0.24028625, "mean_amplitude": 0.0001782693, "valid_pair_count": 32, "latitude": -20.072094139851998, "longitude": -44.162922058222328 }, "geometry": { "type": "Point", "coordinates": [ -44.162922058222328, -20.072094139851998 ] } },
{ "type": "Feature", "properties": { "point_id": 1034, "radar_y": 1495.5, "radar_x": 21500.5, "velocity_mm_yr": -60.0, "dem_error_m": 40.0, "constant_phase_rad": -1.0371727, "gamma": 0.981273, "rmse_rad": 0.1944176, "gamma_initial": 0.503478, "rmse_initial_rad": 1.1601524, "amplitude_dispersion_index": 0.24814238, "mean_amplitude": 0.00010865971, "valid_pair_count": 32, "latitude": -20.07721157695466, "longitude": -44.162021076379673 }, "geometry": { "type": "Point", "coordinates": [ -44.162021076379673, -20.07721157695466 ] } },
{ "type": "Feature", "properties": { "point_id": 1040, "radar_y": 1495.5, "radar_x": 21494.5, "velocity_mm_yr": -60.0, "dem_error_m": 40.0, "constant_phase_rad": -0.941071, "gamma": 0.96591824, "rmse_rad": 0.26365894, "gamma_initial": 0.5197271, "rmse_initial_rad": 1.1303673, "amplitude_dispersion_index": 0.2468073, "mean_amplitude": 0.00010343269, "valid_pair_count": 32, "latitude": -20.07721157695466, "longitude": -44.161892364687866 }, "geometry": { "type": "Point", "coordinates": [ -44.161892364687866, -20.07721157695466 ] } },
{ "type": "Feature", "properties": { "point_id": 1050, "radar_y": 1562.5, "radar_x": 19158.5, "velocity_mm_yr": -38.0, "dem_error_m": -36.0, "constant_phase_rad": 2.917676, "gamma": 0.93953866, "rmse_rad": 0.35215226, "gamma_initial": 0.46759936, "rmse_initial_rad": 1.2244153, "amplitude_dispersion_index": 0.24512702, "mean_amplitude": 0.00030498733, "valid_pair_count": 32, "latitude": -20.102405113460073, "longitude": -44.094576149872367 }, "geometry": { "type": "Point", "coordinates": [ -44.094576149872367, -20.102405113460073 ] } },
{ "type": "Feature", "properties": { "point_id": 1070, "radar_y": 1544.5, "radar_x": 21278.5, "velocity_mm_yr": -60.0, "dem_error_m": 36.0, "constant_phase_rad": -0.8565843, "gamma": 0.96219236, "rmse_rad": 0.28010356, "gamma_initial": 0.47109288, "rmse_initial_rad": 1.2024479, "amplitude_dispersion_index": 0.23884472, "mean_amplitude": 0.00017387042, "valid_pair_count": 32, "latitude": -20.08482212444067, "longitude": -44.157516167166399 }, "geometry": { "type": "Point", "coordinates": [ -44.157516167166399, -20.08482212444067 ] } },
{ "type": "Feature", "properties": { "point_id": 1072, "radar_y": 1475.5, "radar_x": 19093.5, "velocity_mm_yr": -64.0, "dem_error_m": -36.0, "constant_phase_rad": 1.3491008, "gamma": 0.91248626, "rmse_rad": 0.42968604, "gamma_initial": 0.4091091, "rmse_initial_rad": 1.2626865, "amplitude_dispersion_index": 0.23979232, "mean_amplitude": 7.8801335e-05, "valid_pair_count": 32, "latitude": -20.091645373910886, "longitude": -44.091744492652595 }, "geometry": { "type": "Point", "coordinates": [ -44.091744492652595, -20.091645373910886 ] } },
{ "type": "Feature", "properties": { "point_id": 1076, "radar_y": 1401.5, "radar_x": 21511.5, "velocity_mm_yr": -60.0, "dem_error_m": 40.0, "constant_phase_rad": -1.1572258, "gamma": 0.93656856, "rmse_rad": 0.36525702, "gamma_initial": 0.45427796, "rmse_initial_rad": 1.2480091, "amplitude_dispersion_index": 0.23667216, "mean_amplitude": 7.3392395e-05, "valid_pair_count": 32, "latitude": -20.065926972061611, "longitude": -44.158803284084478 }, "geometry": { "type": "Point", "coordinates": [ -44.158803284084478, -20.065926972061611 ] } },
{ "type": "Feature", "properties": { "point_id": 1079, "radar_y": 1426.5, "radar_x": 21324.5, "velocity_mm_yr": -60.0, "dem_error_m": 40.0, "constant_phase_rad": -1.1024591, "gamma": 0.9695847, "rmse_rad": 0.24850449, "gamma_initial": 0.5265913, "rmse_initial_rad": 1.158568, "amplitude_dispersion_index": 0.24799877, "mean_amplitude": 9.992429e-05, "valid_pair_count": 32, "latitude": -20.070257111148479, "longitude": -44.15391223979578 }, "geometry": { "type": "Point", "coordinates": [ -44.15391223979578, -20.070257111148479 ] } },
{ "type": "Feature", "properties": { "point_id": 1091, "radar_y": 1547.5, "radar_x": 21304.5, "velocity_mm_yr": -58.0, "dem_error_m": 36.0, "constant_phase_rad": -1.2686906, "gamma": 0.8887288, "rmse_rad": 0.4815745, "gamma_initial": 0.44863352, "rmse_initial_rad": 1.2820591, "amplitude_dispersion_index": 0.24550791, "mean_amplitude": 0.00012143039, "valid_pair_count": 32, "latitude": -20.085084557112602, "longitude": -44.158417149009054 }, "geometry": { "type": "Point", "coordinates": [ -44.158417149009054, -20.085084557112602 ] } },
{ "type": "Feature", "properties": { "point_id": 1092, "radar_y": 1452.5, "radar_x": 21193.5, "velocity_mm_yr": -64.0, "dem_error_m": 40.0, "constant_phase_rad": -1.2333491, "gamma": 0.87775964, "rmse_rad": 0.53542435, "gamma_initial": 0.40692848, "rmse_initial_rad": 1.3017265, "amplitude_dispersion_index": 0.2352003, "mean_amplitude": 0.00030330935, "valid_pair_count": 32, "latitude": -20.074324817563415, "longitude": -44.150951870884199 }, "geometry": { "type": "Point", "coordinates": [ -44.150951870884199, -20.074324817563415 ] } },
{ "type": "Feature", "properties": { "point_id": 1099, "radar_y": 1492.5, "radar_x": 19130.5, "velocity_mm_yr": -52.0, "dem_error_m": -36.0, "constant_phase_rad": 1.3700316, "gamma": 0.8961929, "rmse_rad": 0.46807668, "gamma_initial": 0.42347446, "rmse_initial_rad": 1.2402163, "amplitude_dispersion_index": 0.23183072, "mean_amplitude": 0.00010412827, "valid_pair_count": 32, "latitude": -20.093613618950371, "longitude": -44.093546456337904 }, "geometry": { "type": "Point", "coordinates": [ -44.093546456337904, -20.093613618950371 ] } },
{ "type": "Feature", "properties": { "point_id": 1102, "radar_y": 1457.5, "radar_x": 21588.5, "velocity_mm_yr": -60.0, "dem_error_m": 40.0, "constant_phase_rad": -0.91876096, "gamma": 0.91454065, "rmse_rad": 0.42063314, "gamma_initial": 0.4449015, "rmse_initial_rad": 1.2404866, "amplitude_dispersion_index": 0.23443252, "mean_amplitude": 0.00013330363, "valid_pair_count": 32, "latitude": -20.072094139851998, "longitude": -44.162922058222328 }, "geometry": { "type": "Point", "coordinates": [ -44.162922058222328, -20.072094139851998 ] } },
{ "type": "Feature", "properties": { "point_id": 1108, "radar_y": 1479.5, "radar_x": 21036.5, "velocity_mm_yr": -60.0, "dem_error_m": 40.0, "constant_phase_rad": -1.409153, "gamma": 0.99970615, "rmse_rad": 0.02424301, "gamma_initial": 0.51641834, "rmse_initial_rad": 1.1123177, "amplitude_dispersion_index": 0.23583807, "mean_amplitude": 8.263391e-05, "valid_pair_count": 32, "latitude": -20.078786172986248, "longitude": -44.14734794351358 }, "geometry": { "type": "Point", "coordinates": [ -44.14734794351358, -20.078786172986248 ] } },
{ "type": "Feature", "properties": { "point_id": 1117, "radar_y": 1463.5, "radar_x": 21755.5, "velocity_mm_yr": -58.0, "dem_error_m": 36.0, "constant_phase_rad": -0.56403244, "gamma": 0.981466, "rmse_rad": 0.19336696, "gamma_initial": 0.47379807, "rmse_initial_rad": 1.2138227, "amplitude_dispersion_index": 0.22862582, "mean_amplitude": 0.0001814576, "valid_pair_count": 32, "latitude": -20.071831707180067, "longitude": -44.167684390819218 }, "geometry": { "type": "Point", "coordinates": [ -44.167684390819218, -20.071831707180067 ] } },
{ "type": "Feature", "properties": { "point_id": 1127, "radar_y": 1487.5, "radar_x": 19112.5, "velocity_mm_yr": -62.0, "dem_error_m": -40.0, "constant_phase_rad": 1.8667525, "gamma": 0.8971481, "rmse_rad": 0.47378388, "gamma_initial": 0.42399493, "rmse_initial_rad": 1.2634908, "amplitude_dispersion_index": 0.23896502, "mean_amplitude": 0.00011133063, "valid_pair_count": 32, "latitude": -20.093088753606509, "longitude": -44.092645474495249 }, "geometry": { "type": "Point", "coordinates": [ -44.092645474495249, -20.093088753606509 ] } },
{ "type": "Feature", "properties": { "point_id": 1146, "radar_y": 1427.5, "radar_x": 21534.5, "velocity_mm_yr": -56.0, "dem_error_m": 40.0, "constant_phase_rad": -1.0881671, "gamma": 0.9864666, "rmse_rad": 0.1649596, "gamma_initial": 0.51408637, "rmse_initial_rad": 1.2234347, "amplitude_dispersion_index": 0.24976282, "mean_amplitude": 0.00036398857, "valid_pair_count": 32, "latitude": -20.068813731452856, "longitude": -44.160347824386172 }, "geometry": { "type": "Point", "coordinates": [ -44.160347824386172, -20.068813731452856 ] } },
{ "type": "Feature", "properties": { "point_id": 1153, "radar_y": 1539.5, "radar_x": 21046.5, "velocity_mm_yr": -62.0, "dem_error_m": 36.0, "constant_phase_rad": -1.1706887, "gamma": 0.99220043, "rmse_rad": 0.1250837, "gamma_initial": 0.50743556, "rmse_initial_rad": 1.1708668, "amplitude_dispersion_index": 0.2397805, "mean_amplitude": 0.00020716414, "valid_pair_count": 32, "latitude": -20.085871855128396, "longitude": -44.150050889041545 }, "geometry": { "type": "Point", "coordinates": [ -44.150050889041545, -20.085871855128396 ] } },
{ "type": "Feature", "properties": { "point_id": 1155, "radar_y": 1559.5, "radar_x": 19159.5, "velocity_mm_yr": -34.0, "dem_error_m": -40.0, "constant_phase_rad": 2.6222658, "gamma": 0.92435986, "rmse_rad": 0.39511356, "gamma_initial": 0.49736667, "rmse_initial_rad": 1.1899273, "amplitude_dispersion_index": 0.23405898, "mean_amplitude": 0.00023943702, "valid_pair_count": 32, "latitude": -20.102011464452175, "longitude": -44.094447438180559 }, "geometry": { "type": "Point", "coordinates": [ -44.094447438180559, -20.102011464452175 ] } },
{ "type": "Feature", "properties": { "point_id": 1159, "radar_y": 1497.5, "radar_x": 19125.5, "velocity_mm_yr": -28.0, "dem_error_m": 0.0, "constant_phase_rad": 1.6394793, "gamma": 0.9480586, "rmse_rad": 0.3266401, "gamma_initial": 0.45417884, "rmse_initial_rad": 1.2121117, "amplitude_dispersion_index": 0.24105251, "mean_amplitude": 0.00034425358, "valid_pair_count": 32, "latitude": -20.094007267958268, "longitude": -44.093546456337904 }, "geometry": { "type": "Point", "coordinates": [ -44.093546456337904, -20.094007267958268 ] } },
{ "type": "Feature", "properties": { "point_id": 1163, "radar_y": 1588.5, "radar_x": 19223.5, "velocity_mm_yr": -28.0, "dem_error_m": -40.0, "constant_phase_rad": -2.945689, "gamma": 0.9311042, "rmse_rad": 0.37839893, "gamma_initial": 0.39690837, "rmse_initial_rad": 1.2798169, "amplitude_dispersion_index": 0.24166062, "mean_amplitude": 0.0001920892, "valid_pair_count": 32, "latitude": -20.105029440179386, "longitude": -44.097665230475755 }, "geometry": { "type": "Point", "coordinates": [ -44.097665230475755, -20.105029440179386 ] } },
{ "type": "Feature", "properties": { "point_id": 1174, "radar_y": 1560.5, "radar_x": 19176.5, "velocity_mm_yr": -36.0, "dem_error_m": -40.0, "constant_phase_rad": 2.954911, "gamma": 0.9113488, "rmse_rad": 0.42841828, "gamma_initial": 0.4495715, "rmse_initial_rad": 1.218904, "amplitude_dispersion_index": 0.24216647, "mean_amplitude": 0.00012990848, "valid_pair_count": 32, "latitude": -20.102011464452175, "longitude": -44.095219708331406 }, "geometry": { "type": "Point", "coordinates": [ -44.095219708331406, -20.102011464452175 ] } },
{ "type": "Feature", "properties": { "point_id": 1181, "radar_y": 1486.5, "radar_x": 19083.5, "velocity_mm_yr": -28.0, "dem_error_m": -8.0, "constant_phase_rad": 2.0925488, "gamma": 0.8859077, "rmse_rad": 0.49635297, "gamma_initial": 0.41307685, "rmse_initial_rad": 1.2681628, "amplitude_dispersion_index": 0.23633368, "mean_amplitude": 0.00021885987, "valid_pair_count": 32, "latitude": -20.093219969942474, "longitude": -44.091615780960787 }, "geometry": { "type": "Point", "coordinates": [ -44.091615780960787, -20.093219969942474 ] } },
{ "type": "Feature", "properties": { "point_id": 1189, "radar_y": 1538.5, "radar_x": 19227.5, "velocity_mm_yr": -42.0, "dem_error_m": -16.0, "constant_phase_rad": 2.6526544, "gamma": 0.8359385, "rmse_rad": 0.6007249, "gamma_initial": 0.46230558, "rmse_initial_rad": 1.1919761, "amplitude_dispersion_index": 0.24258535, "mean_amplitude": 0.00012660914, "valid_pair_count": 32, "latitude": -20.098731056053033, "longitude": -44.097150383708524 }, "geometry": { "type": "Point", "coordinates": [ -44.097150383708524, -20.098731056053033 ] } },
{ "type": "Feature", "properties": { "point_id": 1191, "radar_y": 1513.5, "radar_x": 19168.5, "velocity_mm_yr": -28.0, "dem_error_m": -12.0, "constant_phase_rad": 1.2717166, "gamma": 0.8651284, "rmse_rad": 0.5359111, "gamma_initial": 0.45500827, "rmse_initial_rad": 1.2100265, "amplitude_dispersion_index": 0.24847127, "mean_amplitude": 0.00020080352, "valid_pair_count": 32, "latitude": -20.095844296661788, "longitude": -44.095219708331406 }, "geometry": { "type": "Point", "coordinates": [ -44.095219708331406, -20.095844296661788 ] } },
{ "type": "Feature", "properties": { "point_id": 1197, "radar_y": 1486.5, "radar_x": 21513.5, "velocity_mm_yr": -60.0, "dem_error_m": 40.0, "constant_phase_rad": -1.0680778, "gamma": 0.9665673, "rmse_rad": 0.26143262, "gamma_initial": 0.622835, "rmse_initial_rad": 1.037973, "amplitude_dispersion_index": 0.24416661, "mean_amplitude": 0.00011817686, "valid_pair_count": 32, "latitude": -20.076161846266935, "longitude": -44.162149788071481 }, "geometry": { "type": "Point", "coordinates": [ -44.162149788071481, -20.076161846266935 ] } },
{ "type": "Feature", "properties": { "point_id": 1204, "radar_y": 1498.5, "radar_x": 19125.5, "velocity_mm_yr": -26.0, "dem_error_m": 0.0, "constant_phase_rad": 2.0617695, "gamma": 0.93913746, "rmse_rad": 0.35383812, "gamma_initial": 0.46650416, "rmse_initial_rad": 1.1942949, "amplitude_dispersion_index": 0.24792047, "mean_amplitude": 0.0003644777, "valid_pair_count": 32, "latitude": -20.094400916966165, "longitude": -44.093546456337904 }, "geometry": { "type": "Point", "coordinates": [ -44.093546456337904, -20.094400916966165 ] } },
{ "type": "Feature", "properties": { "point_id": 1217, "radar_y": 1476.5, "radar_x": 21525.5, "velocity_mm_yr": -58.0, "dem_error_m": 40.0, "constant_phase_rad": -0.96165204, "gamma": 0.9690986, "rmse_rad": 0.2505538, "gamma_initial": 0.5575275, "rmse_initial_rad": 1.143264, "amplitude_dispersion_index": 0.24575986, "mean_amplitude": 9.5118936e-05, "valid_pair_count": 32, "latitude": -20.074718466571312, "longitude": -44.162021076379673 }, "geometry": { "type": "Point", "coordinates": [ -44.162021076379673, -20.074718466571312 ] } },
{ "type": "Feature", "properties": { "point_id": 1231, "radar_y": 1546.5, "radar_x": 21030.5, "velocity_mm_yr": -60.0, "dem_error_m": 32.0, "constant_phase_rad": -1.7567762, "gamma": 0.9371452, "rmse_rad": 0.3654364, "gamma_initial": 0.41460183, "rmse_initial_rad": 1.3250946, "amplitude_dispersion_index": 0.24572617, "mean_amplitude": 0.00011899009, "valid_pair_count": 32, "latitude": -20.086921585816121, "longitude": -44.149922177349737 }, "geometry": { "type": "Point", "coordinates": [ -44.149922177349737, -20.086921585816121 ] } },
{ "type": "Feature", "properties": { "point_id": 1247, "radar_y": 1503.5, "radar_x": 19149.5, "velocity_mm_yr": -30.0, "dem_error_m": -12.0, "constant_phase_rad": 1.1810772, "gamma": 0.9238721, "rmse_rad": 0.39515322, "gamma_initial": 0.47505388, "rmse_initial_rad": 1.1585926, "amplitude_dispersion_index": 0.2348293, "mean_amplitude": 0.00022071703, "valid_pair_count": 32, "latitude": -20.094663349638097, "longitude": -44.094704861564175 }, "geometry": { "type": "Point", "coordinates": [ -44.094704861564175, -20.094663349638097 ] } },
{ "type": "Feature", "properties": { "point_id": 1251, "radar_y": 1488.5, "radar_x": 19106.5, "velocity_mm_yr": -48.0, "dem_error_m": -36.0, "constant_phase_rad": 1.3224912, "gamma": 0.89386845, "rmse_rad": 0.4703759, "gamma_initial": 0.3719945, "rmse_initial_rad": 1.3187704, "amplitude_dispersion_index": 0.24224225, "mean_amplitude": 0.00015514281, "valid_pair_count": 32, "latitude": -20.093219969942474, "longitude": -44.092516762803442 }, "geometry": { "type": "Point", "coordinates": [ -44.092516762803442, -20.093219969942474 ] } },
{ "type": "Feature", "properties": { "point_id": 1256, "radar_y": 1493.5, "radar_x": 19175.5, "velocity_mm_yr": -52.0, "dem_error_m": -40.0, "constant_phase_rad": 1.0854418, "gamma": 0.86129993, "rmse_rad": 0.54238904, "gamma_initial": 0.4012539, "rmse_initial_rad": 1.2665408, "amplitude_dispersion_index": 0.24783906, "mean_amplitude": 0.0001059604, "valid_pair_count": 32, "latitude": -20.093219969942474, "longitude": -44.094833573255983 }, "geometry": { "type": "Point", "coordinates": [ -44.094833573255983, -20.093219969942474 ] } },
{ "type": "Feature", "properties": { "point_id": 1259, "radar_y": 1461.5, "radar_x": 21556.5, "velocity_mm_yr": -60.0, "dem_error_m": 40.0, "constant_phase_rad": -1.0360649, "gamma": 0.9829678, "rmse_rad": 0.18534474, "gamma_initial": 0.47745135, "rmse_initial_rad": 1.2528574, "amplitude_dispersion_index": 0.24443871, "mean_amplitude": 0.00014352797, "valid_pair_count": 32, "latitude": -20.072881437867792, "longitude": -44.162278499763289 }, "geometry": { "type": "Point", "coordinates": [ -44.162278499763289, -20.072881437867792 ] } },
{ "type": "Feature", "properties": { "point_id": 1260, "radar_y": 1435.5, "radar_x": 21338.5, "velocity_mm_yr": -60.0, "dem_error_m": 32.0, "constant_phase_rad": -1.0971874, "gamma": 0.9734008, "rmse_rad": 0.23258153, "gamma_initial": 0.48421162, "rmse_initial_rad": 1.1905453, "amplitude_dispersion_index": 0.23211527, "mean_amplitude": 0.00010914595, "valid_pair_count": 32, "latitude": -20.071044409164273, "longitude": -44.154813221638435 }, "geometry": { "type": "Point", "coordinates": [ -44.154813221638435, -20.071044409164273 ] } },
{ "type": "Feature", "properties": { "point_id": 1289, "radar_y": 1499.5, "radar_x": 21229.5, "velocity_mm_yr": -60.0, "dem_error_m": 40.0, "constant_phase_rad": -0.93131316, "gamma": 0.9900696, "rmse_rad": 0.14119089, "gamma_initial": 0.509096, "rmse_initial_rad": 1.1101472, "amplitude_dispersion_index": 0.24933314, "mean_amplitude": 0.00012980548, "valid_pair_count": 32, "latitude": -20.079835903673974, "longitude": -44.154169663179395 }, "geometry": { "type": "Point", "coordinates": [ -44.154169663179395, -20.079835903673974 ] } },
{ "type": "Feature", "properties": { "point_id": 1290, "radar_y": 1509.5, "radar_x": 19163.5, "velocity_mm_yr": -28.0, "dem_error_m": -4.0, "constant_phase_rad": 1.7446374, "gamma": 0.9366193, "rmse_rad": 0.3611681, "gamma_initial": 0.48340282, "rmse_initial_rad": 1.1410475, "amplitude_dispersion_index": 0.23686811, "mean_amplitude": 0.0001664893, "valid_pair_count": 32, "latitude": -20.095319431317925, "longitude": -44.095219708331406 }, "geometry": { "type": "Point", "coordinates": [ -44.095219708331406, -20.095319431317925 ] } },
{ "type": "Feature", "properties": { "point_id": 1291, "radar_y": 1495.5, "radar_x": 19166.5, "velocity_mm_yr": -54.0, "dem_error_m": -40.0, "constant_phase_rad": 1.6712352, "gamma": 0.8996914, "rmse_rad": 0.4565308, "gamma_initial": 0.41000742, "rmse_initial_rad": 1.2714111, "amplitude_dispersion_index": 0.2475767, "mean_amplitude": 0.00012423437, "valid_pair_count": 32, "latitude": -20.093613618950371, "longitude": -44.094704861564175 }, "geometry": { "type": "Point", "coordinates": [ -44.094704861564175, -20.093613618950371 ] } },
{ "type": "Feature", "properties": { "point_id": 1292, "radar_y": 1490.5, "radar_x": 19120.5, "velocity_mm_yr": -52.0, "dem_error_m": -36.0, "constant_phase_rad": 1.5146874, "gamma": 0.9403788, "rmse_rad": 0.35013777, "gamma_initial": 0.45912945, "rmse_initial_rad": 1.2067512, "amplitude_dispersion_index": 0.23605238, "mean_amplitude": 0.00015071555, "valid_pair_count": 32, "latitude": -20.09335118627844, "longitude": -44.093031609570673 }, "geometry": { "type": "Point", "coordinates": [ -44.093031609570673, -20.09335118627844 ] } },
{ "type": "Feature", "properties": { "point_id": 1305, "radar_y": 1539.5, "radar_x": 19226.5, "velocity_mm_yr": -42.0, "dem_error_m": -8.0, "constant_phase_rad": 3.133867, "gamma": 0.83434314, "rmse_rad": 0.59625983, "gamma_initial": 0.43044132, "rmse_initial_rad": 1.235904, "amplitude_dispersion_index": 0.23497155, "mean_amplitude": 0.00011737869, "valid_pair_count": 32, "latitude": -20.098862272388999, "longitude": -44.097150383708524 }, "geometry": { "type": "Point", "coordinates": [ -44.097150383708524, -20.098862272388999 ] } },
{ "type": "Feature", "properties": { "point_id": 1313, "radar_y": 1454.5, "radar_x": 21348.5, "velocity_mm_yr": -60.0, "dem_error_m": 40.0, "constant_phase_rad": -0.7639085, "gamma": 0.9211648, "rmse_rad": 0.4038228, "gamma_initial": 0.43351462, "rmse_initial_rad": 1.293751, "amplitude_dispersion_index": 0.23622842, "mean_amplitude": 0.00013031399, "valid_pair_count": 32, "latitude": -20.073406303211655, "longitude": -44.155842915172897 }, "geometry": { "type": "Point", "coordinates": [ -44.155842915172897, -20.073406303211655 ] } },
{ "type": "Feature", "properties": { "point_id": 1329, "radar_y": 1453.5, "radar_x": 21195.5, "velocity_mm_yr": -62.0, "dem_error_m": 40.0, "constant_phase_rad": -1.1840789, "gamma": 0.91050994, "rmse_rad": 0.4318001, "gamma_initial": 0.4104967, "rmse_initial_rad": 1.288733, "amplitude_dispersion_index": 0.2425376, "mean_amplitude": 0.00029912443, "valid_pair_count": 32, "latitude": -20.074456033899381, "longitude": -44.150951870884199 }, "geometry": { "type": "Point", "coordinates": [ -44.150951870884199, -20.074456033899381 ] } }
]
}
